{
  "type": "FeatureCollection",
  "features": [
    {
      "type": "Feature",
      "geometry": {
        "type": "Point",
        "coordinates": [
          34.99399167148692,
          31.760491503643447
        ]
      },
      "properties": {
        "rank": 1,
        "distance_metric": "euclidean",
        "placement_mode": "cluster",
        "placement_semantics": "area_center",
        "shelter_id": 0,
        "candidate_source": "cluster_candidates",
        "time_bucket": "5min",
        "time_seconds": 300,
        "coordinates": "31.760492,34.993992",
        "nearest_building_dist_m": 27.64,
        "newly_covered_buildings": 5,
        "newly_covered_people_est": 35
      }
    },
    {
      "type": "Feature",
      "geometry": {
        "type": "Point",
        "coordinates": [
          34.99701988820053,
          31.7423705039695
        ]
      },
      "properties": {
        "rank": 2,
        "distance_metric": "euclidean",
        "placement_mode": "cluster",
        "placement_semantics": "area_center",
        "shelter_id": 21,
        "candidate_source": "cluster_candidates",
        "time_bucket": "5min",
        "time_seconds": 300,
        "coordinates": "31.742371,34.997020",
        "nearest_building_dist_m": 75.98,
        "newly_covered_buildings": 16,
        "newly_covered_people_est": 112
      }
    },
    {
      "type": "Feature",
      "geometry": {
        "type": "Point",
        "coordinates": [
          34.986754932797226,
          31.755986650437638
        ]
      },
      "properties": {
        "rank": 3,
        "distance_metric": "euclidean",
        "placement_mode": "cluster",
        "placement_semantics": "area_center",
        "shelter_id": 46,
        "candidate_source": "cluster_candidates",
        "time_bucket": "5min",
        "time_seconds": 300,
        "coordinates": "31.755987,34.986755",
        "nearest_building_dist_m": 93.43,
        "newly_covered_buildings": 5,
        "newly_covered_people_est": 35
      }
    },
    {
      "type": "Feature",
      "geometry": {
        "type": "Point",
        "coordinates": [
          34.988417248668114,
          31.75652918751965
        ]
      },
      "properties": {
        "rank": 4,
        "distance_metric": "euclidean",
        "placement_mode": "cluster",
        "placement_semantics": "area_center",
        "shelter_id": 53,
        "candidate_source": "cluster_candidates",
        "time_bucket": "5min",
        "time_seconds": 300,
        "coordinates": "31.756529,34.988417",
        "nearest_building_dist_m": 42.94,
        "newly_covered_buildings": 5,
        "newly_covered_people_est": 35
      }
    },
    {
      "type": "Feature",
      "geometry": {
        "type": "Point",
        "coordinates": [
          34.9895724175175,
          31.717657961870188
        ]
      },
      "properties": {
        "rank": 5,
        "distance_metric": "euclidean",
        "placement_mode": "cluster",
        "placement_semantics": "area_center",
        "shelter_id": 69,
        "candidate_source": "cluster_candidates",
        "time_bucket": "5min",
        "time_seconds": 300,
        "coordinates": "31.717658,34.989572",
        "nearest_building_dist_m": 43.06,
        "newly_covered_buildings": 5,
        "newly_covered_people_est": 35
      }
    },
    {
      "type": "Feature",
      "geometry": {
        "type": "Point",
        "coordinates": [
          34.998171992356376,
          31.74122792898908
        ]
      },
      "properties": {
        "rank": 6,
        "distance_metric": "euclidean",
        "placement_mode": "cluster",
        "placement_semantics": "area_center",
        "shelter_id": 100,
        "candidate_source": "cluster_candidates",
        "time_bucket": "5min",
        "time_seconds": 300,
        "coordinates": "31.741228,34.998172",
        "nearest_building_dist_m": 54.7,
        "newly_covered_buildings": 28,
        "newly_covered_people_est": 196
      }
    },
    {
      "type": "Feature",
      "geometry": {
        "type": "Point",
        "coordinates": [
          34.9912044006508,
          31.758510376116178
        ]
      },
      "properties": {
        "rank": 7,
        "distance_metric": "euclidean",
        "placement_mode": "cluster",
        "placement_semantics": "area_center",
        "shelter_id": 117,
        "candidate_source": "cluster_candidates",
        "time_bucket": "5min",
        "time_seconds": 300,
        "coordinates": "31.758510,34.991204",
        "nearest_building_dist_m": 85.39,
        "newly_covered_buildings": 10,
        "newly_covered_people_est": 70
      }
    },
    {
      "type": "Feature",
      "geometry": {
        "type": "Point",
        "coordinates": [
          34.995762504743745,
          31.71238040026507
        ]
      },
      "properties": {
        "rank": 8,
        "distance_metric": "euclidean",
        "placement_mode": "cluster",
        "placement_semantics": "area_center",
        "shelter_id": 123,
        "candidate_source": "cluster_candidates",
        "time_bucket": "5min",
        "time_seconds": 300,
        "coordinates": "31.712380,34.995763",
        "nearest_building_dist_m": 95.13,
        "newly_covered_buildings": 38,
        "newly_covered_people_est": 266
      }
    },
    {
      "type": "Feature",
      "geometry": {
        "type": "Point",
        "coordinates": [
          34.9897915410268,
          31.710893841802406
        ]
      },
      "properties": {
        "rank": 9,
        "distance_metric": "euclidean",
        "placement_mode": "cluster",
        "placement_semantics": "area_center",
        "shelter_id": 147,
        "candidate_source": "cluster_candidates",
        "time_bucket": "5min",
        "time_seconds": 300,
        "coordinates": "31.710894,34.989792",
        "nearest_building_dist_m": 84.09,
        "newly_covered_buildings": 87,
        "newly_covered_people_est": 609
      }
    }
  ]
}