{
  "type": "FeatureCollection",
  "features": [
    {
      "type": "Feature",
      "geometry": {
        "type": "Point",
        "coordinates": [
          34.99364703077113,
          31.745720730304697
        ]
      },
      "properties": {
        "rank": 1,
        "distance_metric": "euclidean",
        "placement_mode": "cluster",
        "placement_semantics": "area_center",
        "shelter_id": 1,
        "candidate_source": "cluster_candidates",
        "time_bucket": "5min",
        "time_seconds": 300,
        "coordinates": "31.745721,34.993647",
        "nearest_building_dist_m": 17.63,
        "newly_covered_buildings": 16,
        "newly_covered_people_est": 112
      }
    }
  ]
}