{
  "type": "FeatureCollection",
  "features": [
    {
      "type": "Feature",
      "geometry": {
        "type": "Point",
        "coordinates": [
          34.992169999994175,
          31.706587184878
        ]
      },
      "properties": {
        "rank": 1,
        "distance_metric": "graph",
        "placement_mode": "cluster",
        "placement_semantics": "area_center",
        "shelter_id": 1,
        "candidate_source": "cluster_candidates",
        "time_bucket": "5min",
        "time_seconds": 300,
        "coordinates": "31.706587,34.992170",
        "nearest_building_dist_m": 30.28,
        "newly_covered_buildings": 17,
        "newly_covered_people_est": 119
      }
    },
    {
      "type": "Feature",
      "geometry": {
        "type": "Point",
        "coordinates": [
          34.99533904910887,
          31.724095779323243
        ]
      },
      "properties": {
        "rank": 2,
        "distance_metric": "graph",
        "placement_mode": "cluster",
        "placement_semantics": "area_center",
        "shelter_id": 11,
        "candidate_source": "cluster_candidates",
        "time_bucket": "5min",
        "time_seconds": 300,
        "coordinates": "31.724096,34.995339",
        "nearest_building_dist_m": 31.29,
        "newly_covered_buildings": 17,
        "newly_covered_people_est": 119
      }
    },
    {
      "type": "Feature",
      "geometry": {
        "type": "Point",
        "coordinates": [
          34.995868603224075,
          31.72555556189116
        ]
      },
      "properties": {
        "rank": 3,
        "distance_metric": "graph",
        "placement_mode": "cluster",
        "placement_semantics": "area_center",
        "shelter_id": 16,
        "candidate_source": "cluster_candidates",
        "time_bucket": "5min",
        "time_seconds": 300,
        "coordinates": "31.725556,34.995869",
        "nearest_building_dist_m": 43.25,
        "newly_covered_buildings": 16,
        "newly_covered_people_est": 112
      }
    },
    {
      "type": "Feature",
      "geometry": {
        "type": "Point",
        "coordinates": [
          34.988542542745584,
          31.748997075272
        ]
      },
      "properties": {
        "rank": 4,
        "distance_metric": "graph",
        "placement_mode": "cluster",
        "placement_semantics": "area_center",
        "shelter_id": 19,
        "candidate_source": "cluster_candidates",
        "time_bucket": "5min",
        "time_seconds": 300,
        "coordinates": "31.748997,34.988543",
        "nearest_building_dist_m": 20.64,
        "newly_covered_buildings": 41,
        "newly_covered_people_est": 287
      }
    },
    {
      "type": "Feature",
      "geometry": {
        "type": "Point",
        "coordinates": [
          34.99444838689155,
          31.709937496080585
        ]
      },
      "properties": {
        "rank": 5,
        "distance_metric": "graph",
        "placement_mode": "cluster",
        "placement_semantics": "area_center",
        "shelter_id": 2,
        "candidate_source": "cluster_candidates",
        "time_bucket": "5min",
        "time_seconds": 300,
        "coordinates": "31.709937,34.994448",
        "nearest_building_dist_m": 15.25,
        "newly_covered_buildings": 27,
        "newly_covered_people_est": 189
      }
    },
    {
      "type": "Feature",
      "geometry": {
        "type": "Point",
        "coordinates": [
          34.985307793334975,
          31.73689766110361
        ]
      },
      "properties": {
        "rank": 6,
        "distance_metric": "graph",
        "placement_mode": "cluster",
        "placement_semantics": "area_center",
        "shelter_id": 14,
        "candidate_source": "cluster_candidates",
        "time_bucket": "5min",
        "time_seconds": 300,
        "coordinates": "31.736898,34.985308",
        "nearest_building_dist_m": 40.22,
        "newly_covered_buildings": 22,
        "newly_covered_people_est": 154
      }
    }
  ]
}