{
  "type": "FeatureCollection",
  "features": [
    {
      "type": "Feature",
      "geometry": {
        "type": "Point",
        "coordinates": [
          34.94948236492858,
          31.738189507897573
        ]
      },
      "properties": {
        "rank": 1,
        "distance_metric": "euclidean",
        "placement_mode": "cluster",
        "placement_semantics": "area_center",
        "shelter_id": 0,
        "candidate_source": "cluster_candidates",
        "time_bucket": "5min",
        "time_seconds": 300,
        "coordinates": "31.738190,34.949482",
        "nearest_building_dist_m": 0.0,
        "newly_covered_buildings": 34,
        "newly_covered_people_est": 238
      }
    },
    {
      "type": "Feature",
      "geometry": {
        "type": "Point",
        "coordinates": [
          34.98279239045084,
          31.714055956223845
        ]
      },
      "properties": {
        "rank": 2,
        "distance_metric": "euclidean",
        "placement_mode": "cluster",
        "placement_semantics": "area_center",
        "shelter_id": 5,
        "candidate_source": "cluster_candidates",
        "time_bucket": "5min",
        "time_seconds": 300,
        "coordinates": "31.714056,34.982792",
        "nearest_building_dist_m": 25.55,
        "newly_covered_buildings": 39,
        "newly_covered_people_est": 273
      }
    },
    {
      "type": "Feature",
      "geometry": {
        "type": "Point",
        "coordinates": [
          34.99213076428582,
          31.706538258973204
        ]
      },
      "properties": {
        "rank": 3,
        "distance_metric": "euclidean",
        "placement_mode": "cluster",
        "placement_semantics": "area_center",
        "shelter_id": 1,
        "candidate_source": "cluster_candidates",
        "time_bucket": "5min",
        "time_seconds": 300,
        "coordinates": "31.706538,34.992131",
        "nearest_building_dist_m": 24.74,
        "newly_covered_buildings": 17,
        "newly_covered_people_est": 119
      }
    },
    {
      "type": "Feature",
      "geometry": {
        "type": "Point",
        "coordinates": [
          34.995701617379254,
          31.725627280939054
        ]
      },
      "properties": {
        "rank": 4,
        "distance_metric": "euclidean",
        "placement_mode": "cluster",
        "placement_semantics": "area_center",
        "shelter_id": 12,
        "candidate_source": "cluster_candidates",
        "time_bucket": "5min",
        "time_seconds": 300,
        "coordinates": "31.725627,34.995702",
        "nearest_building_dist_m": 52.09,
        "newly_covered_buildings": 18,
        "newly_covered_people_est": 126
      }
    },
    {
      "type": "Feature",
      "geometry": {
        "type": "Point",
        "coordinates": [
          34.96581659320718,
          31.712797223667344
        ]
      },
      "properties": {
        "rank": 5,
        "distance_metric": "euclidean",
        "placement_mode": "cluster",
        "placement_semantics": "area_center",
        "shelter_id": 13,
        "candidate_source": "cluster_candidates",
        "time_bucket": "5min",
        "time_seconds": 300,
        "coordinates": "31.712797,34.965817",
        "nearest_building_dist_m": 58.86,
        "newly_covered_buildings": 12,
        "newly_covered_people_est": 84
      }
    },
    {
      "type": "Feature",
      "geometry": {
        "type": "Point",
        "coordinates": [
          34.99311879706464,
          31.70090328084562
        ]
      },
      "properties": {
        "rank": 6,
        "distance_metric": "euclidean",
        "placement_mode": "cluster",
        "placement_semantics": "area_center",
        "shelter_id": 2,
        "candidate_source": "cluster_candidates",
        "time_bucket": "5min",
        "time_seconds": 300,
        "coordinates": "31.700903,34.993119",
        "nearest_building_dist_m": 26.01,
        "newly_covered_buildings": 14,
        "newly_covered_people_est": 98
      }
    }
  ]
}