{
  "type": "FeatureCollection",
  "features": [
    {
      "type": "Feature",
      "geometry": {
        "type": "Point",
        "coordinates": [
          34.97907810801594,
          31.738487356400206
        ]
      },
      "properties": {
        "rank": 1,
        "distance_metric": "euclidean",
        "placement_mode": "cluster",
        "placement_semantics": "area_center",
        "shelter_id": 18,
        "candidate_source": "cluster_candidates",
        "time_bucket": "5min",
        "time_seconds": 300,
        "coordinates": "31.738487,34.979078",
        "nearest_building_dist_m": 9.43,
        "newly_covered_buildings": 14,
        "newly_covered_people_est": 98
      }
    },
    {
      "type": "Feature",
      "geometry": {
        "type": "Point",
        "coordinates": [
          34.977793827896534,
          31.744081976827275
        ]
      },
      "properties": {
        "rank": 2,
        "distance_metric": "euclidean",
        "placement_mode": "cluster",
        "placement_semantics": "area_center",
        "shelter_id": 28,
        "candidate_source": "cluster_candidates",
        "time_bucket": "5min",
        "time_seconds": 300,
        "coordinates": "31.744082,34.977794",
        "nearest_building_dist_m": 29.93,
        "newly_covered_buildings": 12,
        "newly_covered_people_est": 84
      }
    },
    {
      "type": "Feature",
      "geometry": {
        "type": "Point",
        "coordinates": [
          34.987625725405344,
          31.753692123568126
        ]
      },
      "properties": {
        "rank": 3,
        "distance_metric": "euclidean",
        "placement_mode": "cluster",
        "placement_semantics": "area_center",
        "shelter_id": 17,
        "candidate_source": "cluster_candidates",
        "time_bucket": "5min",
        "time_seconds": 300,
        "coordinates": "31.753692,34.987626",
        "nearest_building_dist_m": 24.46,
        "newly_covered_buildings": 13,
        "newly_covered_people_est": 91
      }
    },
    {
      "type": "Feature",
      "geometry": {
        "type": "Point",
        "coordinates": [
          34.985153852194095,
          31.73852837533662
        ]
      },
      "properties": {
        "rank": 4,
        "distance_metric": "euclidean",
        "placement_mode": "cluster",
        "placement_semantics": "area_center",
        "shelter_id": 14,
        "candidate_source": "cluster_candidates",
        "time_bucket": "5min",
        "time_seconds": 300,
        "coordinates": "31.738528,34.985154",
        "nearest_building_dist_m": 7.74,
        "newly_covered_buildings": 9,
        "newly_covered_people_est": 63
      }
    },
    {
      "type": "Feature",
      "geometry": {
        "type": "Point",
        "coordinates": [
          34.97954661555547,
          31.74408028171191
        ]
      },
      "properties": {
        "rank": 5,
        "distance_metric": "euclidean",
        "placement_mode": "cluster",
        "placement_semantics": "area_center",
        "shelter_id": 2,
        "candidate_source": "cluster_candidates",
        "time_bucket": "5min",
        "time_seconds": 300,
        "coordinates": "31.744080,34.979547",
        "nearest_building_dist_m": 6.74,
        "newly_covered_buildings": 6,
        "newly_covered_people_est": 42
      }
    },
    {
      "type": "Feature",
      "geometry": {
        "type": "Point",
        "coordinates": [
          34.98683737213514,
          31.748169114352287
        ]
      },
      "properties": {
        "rank": 6,
        "distance_metric": "euclidean",
        "placement_mode": "cluster",
        "placement_semantics": "area_center",
        "shelter_id": 3,
        "candidate_source": "cluster_candidates",
        "time_bucket": "5min",
        "time_seconds": 300,
        "coordinates": "31.748169,34.986837",
        "nearest_building_dist_m": 6.72,
        "newly_covered_buildings": 13,
        "newly_covered_people_est": 91
      }
    },
    {
      "type": "Feature",
      "geometry": {
        "type": "Point",
        "coordinates": [
          34.979648047800346,
          31.747813907951432
        ]
      },
      "properties": {
        "rank": 7,
        "distance_metric": "euclidean",
        "placement_mode": "cluster",
        "placement_semantics": "area_center",
        "shelter_id": 5,
        "candidate_source": "cluster_candidates",
        "time_bucket": "5min",
        "time_seconds": 300,
        "coordinates": "31.747814,34.979648",
        "nearest_building_dist_m": 11.74,
        "newly_covered_buildings": 15,
        "newly_covered_people_est": 105
      }
    },
    {
      "type": "Feature",
      "geometry": {
        "type": "Point",
        "coordinates": [
          34.988505572694656,
          31.747741139286816
        ]
      },
      "properties": {
        "rank": 8,
        "distance_metric": "euclidean",
        "placement_mode": "cluster",
        "placement_semantics": "area_center",
        "shelter_id": 13,
        "candidate_source": "cluster_candidates",
        "time_bucket": "5min",
        "time_seconds": 300,
        "coordinates": "31.747741,34.988506",
        "nearest_building_dist_m": 7.67,
        "newly_covered_buildings": 15,
        "newly_covered_people_est": 105
      }
    },
    {
      "type": "Feature",
      "geometry": {
        "type": "Point",
        "coordinates": [
          34.97496634070956,
          31.743705147519634
        ]
      },
      "properties": {
        "rank": 9,
        "distance_metric": "euclidean",
        "placement_mode": "cluster",
        "placement_semantics": "area_center",
        "shelter_id": 20,
        "candidate_source": "cluster_candidates",
        "time_bucket": "5min",
        "time_seconds": 300,
        "coordinates": "31.743705,34.974966",
        "nearest_building_dist_m": 10.56,
        "newly_covered_buildings": 11,
        "newly_covered_people_est": 77
      }
    },
    {
      "type": "Feature",
      "geometry": {
        "type": "Point",
        "coordinates": [
          34.97624861498734,
          31.74259708281962
        ]
      },
      "properties": {
        "rank": 10,
        "distance_metric": "euclidean",
        "placement_mode": "cluster",
        "placement_semantics": "area_center",
        "shelter_id": 38,
        "candidate_source": "cluster_candidates",
        "time_bucket": "5min",
        "time_seconds": 300,
        "coordinates": "31.742597,34.976249",
        "nearest_building_dist_m": 7.24,
        "newly_covered_buildings": 14,
        "newly_covered_people_est": 98
      }
    },
    {
      "type": "Feature",
      "geometry": {
        "type": "Point",
        "coordinates": [
          34.981477935778855,
          31.752142413301872
        ]
      },
      "properties": {
        "rank": 11,
        "distance_metric": "euclidean",
        "placement_mode": "cluster",
        "placement_semantics": "area_center",
        "shelter_id": 40,
        "candidate_source": "cluster_candidates",
        "time_bucket": "5min",
        "time_seconds": 300,
        "coordinates": "31.752142,34.981478",
        "nearest_building_dist_m": 68.91,
        "newly_covered_buildings": 18,
        "newly_covered_people_est": 126
      }
    },
    {
      "type": "Feature",
      "geometry": {
        "type": "Point",
        "coordinates": [
          34.978633926954906,
          31.742394110352286
        ]
      },
      "properties": {
        "rank": 12,
        "distance_metric": "euclidean",
        "placement_mode": "cluster",
        "placement_semantics": "area_center",
        "shelter_id": 19,
        "candidate_source": "cluster_candidates",
        "time_bucket": "5min",
        "time_seconds": 300,
        "coordinates": "31.742394,34.978634",
        "nearest_building_dist_m": 28.04,
        "newly_covered_buildings": 10,
        "newly_covered_people_est": 70
      }
    },
    {
      "type": "Feature",
      "geometry": {
        "type": "Point",
        "coordinates": [
          34.98341885095556,
          31.738276442763375
        ]
      },
      "properties": {
        "rank": 13,
        "distance_metric": "euclidean",
        "placement_mode": "cluster",
        "placement_semantics": "area_center",
        "shelter_id": 25,
        "candidate_source": "cluster_candidates",
        "time_bucket": "5min",
        "time_seconds": 300,
        "coordinates": "31.738276,34.983419",
        "nearest_building_dist_m": 27.69,
        "newly_covered_buildings": 7,
        "newly_covered_people_est": 49
      }
    },
    {
      "type": "Feature",
      "geometry": {
        "type": "Point",
        "coordinates": [
          34.99563761433839,
          31.752452514261297
        ]
      },
      "properties": {
        "rank": 14,
        "distance_metric": "euclidean",
        "placement_mode": "cluster",
        "placement_semantics": "area_center",
        "shelter_id": 6,
        "candidate_source": "cluster_candidates",
        "time_bucket": "5min",
        "time_seconds": 300,
        "coordinates": "31.752453,34.995638",
        "nearest_building_dist_m": 9.0,
        "newly_covered_buildings": 10,
        "newly_covered_people_est": 70
      }
    },
    {
      "type": "Feature",
      "geometry": {
        "type": "Point",
        "coordinates": [
          34.9900973143661,
          31.753959786884337
        ]
      },
      "properties": {
        "rank": 15,
        "distance_metric": "euclidean",
        "placement_mode": "cluster",
        "placement_semantics": "area_center",
        "shelter_id": 21,
        "candidate_source": "cluster_candidates",
        "time_bucket": "5min",
        "time_seconds": 300,
        "coordinates": "31.753960,34.990097",
        "nearest_building_dist_m": 9.92,
        "newly_covered_buildings": 5,
        "newly_covered_people_est": 35
      }
    },
    {
      "type": "Feature",
      "geometry": {
        "type": "Point",
        "coordinates": [
          34.975621239849076,
          31.74535173929267
        ]
      },
      "properties": {
        "rank": 16,
        "distance_metric": "euclidean",
        "placement_mode": "cluster",
        "placement_semantics": "area_center",
        "shelter_id": 22,
        "candidate_source": "cluster_candidates",
        "time_bucket": "5min",
        "time_seconds": 300,
        "coordinates": "31.745352,34.975621",
        "nearest_building_dist_m": 28.02,
        "newly_covered_buildings": 10,
        "newly_covered_people_est": 70
      }
    },
    {
      "type": "Feature",
      "geometry": {
        "type": "Point",
        "coordinates": [
          34.9944314398177,
          31.75297122885128
        ]
      },
      "properties": {
        "rank": 17,
        "distance_metric": "euclidean",
        "placement_mode": "cluster",
        "placement_semantics": "area_center",
        "shelter_id": 24,
        "candidate_source": "cluster_candidates",
        "time_bucket": "5min",
        "time_seconds": 300,
        "coordinates": "31.752971,34.994431",
        "nearest_building_dist_m": 41.35,
        "newly_covered_buildings": 7,
        "newly_covered_people_est": 49
      }
    },
    {
      "type": "Feature",
      "geometry": {
        "type": "Point",
        "coordinates": [
          34.980093209392074,
          31.75064803342127
        ]
      },
      "properties": {
        "rank": 18,
        "distance_metric": "euclidean",
        "placement_mode": "cluster",
        "placement_semantics": "area_center",
        "shelter_id": 31,
        "candidate_source": "cluster_candidates",
        "time_bucket": "5min",
        "time_seconds": 300,
        "coordinates": "31.750648,34.980093",
        "nearest_building_dist_m": 0.61,
        "newly_covered_buildings": 6,
        "newly_covered_people_est": 42
      }
    },
    {
      "type": "Feature",
      "geometry": {
        "type": "Point",
        "coordinates": [
          34.9804334638666,
          31.73836703058739
        ]
      },
      "properties": {
        "rank": 19,
        "distance_metric": "euclidean",
        "placement_mode": "cluster",
        "placement_semantics": "area_center",
        "shelter_id": 33,
        "candidate_source": "cluster_candidates",
        "time_bucket": "5min",
        "time_seconds": 300,
        "coordinates": "31.738367,34.980433",
        "nearest_building_dist_m": 5.41,
        "newly_covered_buildings": 8,
        "newly_covered_people_est": 56
      }
    },
    {
      "type": "Feature",
      "geometry": {
        "type": "Point",
        "coordinates": [
          34.99350036087558,
          31.755933045842966
        ]
      },
      "properties": {
        "rank": 20,
        "distance_metric": "euclidean",
        "placement_mode": "cluster",
        "placement_semantics": "area_center",
        "shelter_id": 34,
        "candidate_source": "cluster_candidates",
        "time_bucket": "5min",
        "time_seconds": 300,
        "coordinates": "31.755933,34.993500",
        "nearest_building_dist_m": 12.69,
        "newly_covered_buildings": 5,
        "newly_covered_people_est": 35
      }
    },
    {
      "type": "Feature",
      "geometry": {
        "type": "Point",
        "coordinates": [
          34.986510680081196,
          31.739206445111105
        ]
      },
      "properties": {
        "rank": 21,
        "distance_metric": "euclidean",
        "placement_mode": "cluster",
        "placement_semantics": "area_center",
        "shelter_id": 35,
        "candidate_source": "cluster_candidates",
        "time_bucket": "5min",
        "time_seconds": 300,
        "coordinates": "31.739206,34.986511",
        "nearest_building_dist_m": 56.45,
        "newly_covered_buildings": 5,
        "newly_covered_people_est": 35
      }
    },
    {
      "type": "Feature",
      "geometry": {
        "type": "Point",
        "coordinates": [
          34.997337279202064,
          31.748712841511654
        ]
      },
      "properties": {
        "rank": 22,
        "distance_metric": "euclidean",
        "placement_mode": "cluster",
        "placement_semantics": "area_center",
        "shelter_id": 42,
        "candidate_source": "cluster_candidates",
        "time_bucket": "5min",
        "time_seconds": 300,
        "coordinates": "31.748713,34.997337",
        "nearest_building_dist_m": 75.5,
        "newly_covered_buildings": 5,
        "newly_covered_people_est": 35
      }
    },
    {
      "type": "Feature",
      "geometry": {
        "type": "Point",
        "coordinates": [
          34.99924838634895,
          31.71172518285684
        ]
      },
      "properties": {
        "rank": 23,
        "distance_metric": "euclidean",
        "placement_mode": "cluster",
        "placement_semantics": "area_center",
        "shelter_id": 47,
        "candidate_source": "cluster_candidates",
        "time_bucket": "5min",
        "time_seconds": 300,
        "coordinates": "31.711725,34.999248",
        "nearest_building_dist_m": 97.35,
        "newly_covered_buildings": 5,
        "newly_covered_people_est": 35
      }
    }
  ]
}