{
  "type": "FeatureCollection",
  "features": [
    {
      "type": "Feature",
      "geometry": {
        "type": "Point",
        "coordinates": [
          34.94948236492858,
          31.738189507897573
        ]
      },
      "properties": {
        "rank": 1,
        "distance_metric": "euclidean",
        "placement_mode": "cluster",
        "placement_semantics": "area_center",
        "shelter_id": 0,
        "candidate_source": "cluster_candidates",
        "time_bucket": "5min",
        "time_seconds": 300,
        "coordinates": "31.738190,34.949482",
        "nearest_building_dist_m": 0.0,
        "newly_covered_buildings": 36,
        "newly_covered_people_est": 252
      }
    },
    {
      "type": "Feature",
      "geometry": {
        "type": "Point",
        "coordinates": [
          34.993776592026585,
          31.745722265768997
        ]
      },
      "properties": {
        "rank": 2,
        "distance_metric": "euclidean",
        "placement_mode": "cluster",
        "placement_semantics": "area_center",
        "shelter_id": 6,
        "candidate_source": "cluster_candidates",
        "time_bucket": "5min",
        "time_seconds": 300,
        "coordinates": "31.745722,34.993777",
        "nearest_building_dist_m": 7.65,
        "newly_covered_buildings": 19,
        "newly_covered_people_est": 133
      }
    },
    {
      "type": "Feature",
      "geometry": {
        "type": "Point",
        "coordinates": [
          34.994664025419645,
          31.760248802349953
        ]
      },
      "properties": {
        "rank": 3,
        "distance_metric": "euclidean",
        "placement_mode": "cluster",
        "placement_semantics": "area_center",
        "shelter_id": 10,
        "candidate_source": "cluster_candidates",
        "time_bucket": "5min",
        "time_seconds": 300,
        "coordinates": "31.760249,34.994664",
        "nearest_building_dist_m": 13.73,
        "newly_covered_buildings": 19,
        "newly_covered_people_est": 133
      }
    },
    {
      "type": "Feature",
      "geometry": {
        "type": "Point",
        "coordinates": [
          34.998892810148604,
          31.713737039515102
        ]
      },
      "properties": {
        "rank": 4,
        "distance_metric": "euclidean",
        "placement_mode": "cluster",
        "placement_semantics": "area_center",
        "shelter_id": 7,
        "candidate_source": "cluster_candidates",
        "time_bucket": "5min",
        "time_seconds": 300,
        "coordinates": "31.713737,34.998893",
        "nearest_building_dist_m": 23.94,
        "newly_covered_buildings": 13,
        "newly_covered_people_est": 91
      }
    },
    {
      "type": "Feature",
      "geometry": {
        "type": "Point",
        "coordinates": [
          34.99825909807277,
          31.742895726375988
        ]
      },
      "properties": {
        "rank": 5,
        "distance_metric": "euclidean",
        "placement_mode": "cluster",
        "placement_semantics": "area_center",
        "shelter_id": 13,
        "candidate_source": "cluster_candidates",
        "time_bucket": "5min",
        "time_seconds": 300,
        "coordinates": "31.742896,34.998259",
        "nearest_building_dist_m": 6.89,
        "newly_covered_buildings": 17,
        "newly_covered_people_est": 119
      }
    },
    {
      "type": "Feature",
      "geometry": {
        "type": "Point",
        "coordinates": [
          34.95506605218573,
          31.73339490405699
        ]
      },
      "properties": {
        "rank": 6,
        "distance_metric": "euclidean",
        "placement_mode": "cluster",
        "placement_semantics": "area_center",
        "shelter_id": 18,
        "candidate_source": "cluster_candidates",
        "time_bucket": "5min",
        "time_seconds": 300,
        "coordinates": "31.733395,34.955066",
        "nearest_building_dist_m": 47.63,
        "newly_covered_buildings": 18,
        "newly_covered_people_est": 126
      }
    },
    {
      "type": "Feature",
      "geometry": {
        "type": "Point",
        "coordinates": [
          34.95778111252607,
          31.732216778088066
        ]
      },
      "properties": {
        "rank": 7,
        "distance_metric": "euclidean",
        "placement_mode": "cluster",
        "placement_semantics": "area_center",
        "shelter_id": 19,
        "candidate_source": "cluster_candidates",
        "time_bucket": "5min",
        "time_seconds": 300,
        "coordinates": "31.732217,34.957781",
        "nearest_building_dist_m": 59.97,
        "newly_covered_buildings": 14,
        "newly_covered_people_est": 98
      }
    },
    {
      "type": "Feature",
      "geometry": {
        "type": "Point",
        "coordinates": [
          34.99197383441069,
          31.75634367457226
        ]
      },
      "properties": {
        "rank": 8,
        "distance_metric": "euclidean",
        "placement_mode": "cluster",
        "placement_semantics": "area_center",
        "shelter_id": 53,
        "candidate_source": "cluster_candidates",
        "time_bucket": "5min",
        "time_seconds": 300,
        "coordinates": "31.756344,34.991974",
        "nearest_building_dist_m": 52.73,
        "newly_covered_buildings": 21,
        "newly_covered_people_est": 147
      }
    },
    {
      "type": "Feature",
      "geometry": {
        "type": "Point",
        "coordinates": [
          34.98206987004566,
          31.74215125953765
        ]
      },
      "properties": {
        "rank": 9,
        "distance_metric": "euclidean",
        "placement_mode": "cluster",
        "placement_semantics": "area_center",
        "shelter_id": 36,
        "candidate_source": "cluster_candidates",
        "time_bucket": "5min",
        "time_seconds": 300,
        "coordinates": "31.742151,34.982070",
        "nearest_building_dist_m": 32.01,
        "newly_covered_buildings": 18,
        "newly_covered_people_est": 126
      }
    },
    {
      "type": "Feature",
      "geometry": {
        "type": "Point",
        "coordinates": [
          34.99483256435302,
          31.738503896412876
        ]
      },
      "properties": {
        "rank": 10,
        "distance_metric": "euclidean",
        "placement_mode": "cluster",
        "placement_semantics": "area_center",
        "shelter_id": 42,
        "candidate_source": "cluster_candidates",
        "time_bucket": "5min",
        "time_seconds": 300,
        "coordinates": "31.738504,34.994833",
        "nearest_building_dist_m": 49.61,
        "newly_covered_buildings": 18,
        "newly_covered_people_est": 126
      }
    },
    {
      "type": "Feature",
      "geometry": {
        "type": "Point",
        "coordinates": [
          34.95229435194987,
          31.73406670968526
        ]
      },
      "properties": {
        "rank": 11,
        "distance_metric": "euclidean",
        "placement_mode": "cluster",
        "placement_semantics": "area_center",
        "shelter_id": 3,
        "candidate_source": "cluster_candidates",
        "time_bucket": "5min",
        "time_seconds": 300,
        "coordinates": "31.734067,34.952294",
        "nearest_building_dist_m": 39.46,
        "newly_covered_buildings": 11,
        "newly_covered_people_est": 77
      }
    },
    {
      "type": "Feature",
      "geometry": {
        "type": "Point",
        "coordinates": [
          34.98713594468201,
          31.755890211926534
        ]
      },
      "properties": {
        "rank": 12,
        "distance_metric": "euclidean",
        "placement_mode": "cluster",
        "placement_semantics": "area_center",
        "shelter_id": 12,
        "candidate_source": "cluster_candidates",
        "time_bucket": "5min",
        "time_seconds": 300,
        "coordinates": "31.755890,34.987136",
        "nearest_building_dist_m": 30.54,
        "newly_covered_buildings": 11,
        "newly_covered_people_est": 77
      }
    },
    {
      "type": "Feature",
      "geometry": {
        "type": "Point",
        "coordinates": [
          34.9967976792706,
          31.754211717684544
        ]
      },
      "properties": {
        "rank": 13,
        "distance_metric": "euclidean",
        "placement_mode": "cluster",
        "placement_semantics": "area_center",
        "shelter_id": 26,
        "candidate_source": "cluster_candidates",
        "time_bucket": "5min",
        "time_seconds": 300,
        "coordinates": "31.754212,34.996798",
        "nearest_building_dist_m": 18.78,
        "newly_covered_buildings": 15,
        "newly_covered_people_est": 105
      }
    },
    {
      "type": "Feature",
      "geometry": {
        "type": "Point",
        "coordinates": [
          34.993463489630166,
          31.73991528053632
        ]
      },
      "properties": {
        "rank": 14,
        "distance_metric": "euclidean",
        "placement_mode": "cluster",
        "placement_semantics": "area_center",
        "shelter_id": 77,
        "candidate_source": "cluster_candidates",
        "time_bucket": "5min",
        "time_seconds": 300,
        "coordinates": "31.739915,34.993463",
        "nearest_building_dist_m": 33.23,
        "newly_covered_buildings": 26,
        "newly_covered_people_est": 182
      }
    },
    {
      "type": "Feature",
      "geometry": {
        "type": "Point",
        "coordinates": [
          34.982512225559184,
          31.715118473482086
        ]
      },
      "properties": {
        "rank": 15,
        "distance_metric": "euclidean",
        "placement_mode": "cluster",
        "placement_semantics": "area_center",
        "shelter_id": 2,
        "candidate_source": "cluster_candidates",
        "time_bucket": "5min",
        "time_seconds": 300,
        "coordinates": "31.715118,34.982512",
        "nearest_building_dist_m": 16.57,
        "newly_covered_buildings": 9,
        "newly_covered_people_est": 63
      }
    },
    {
      "type": "Feature",
      "geometry": {
        "type": "Point",
        "coordinates": [
          34.97912608610733,
          31.70502628126894
        ]
      },
      "properties": {
        "rank": 16,
        "distance_metric": "euclidean",
        "placement_mode": "cluster",
        "placement_semantics": "area_center",
        "shelter_id": 14,
        "candidate_source": "cluster_candidates",
        "time_bucket": "5min",
        "time_seconds": 300,
        "coordinates": "31.705026,34.979126",
        "nearest_building_dist_m": 39.77,
        "newly_covered_buildings": 9,
        "newly_covered_people_est": 63
      }
    },
    {
      "type": "Feature",
      "geometry": {
        "type": "Point",
        "coordinates": [
          34.99973284026006,
          31.737673683422184
        ]
      },
      "properties": {
        "rank": 17,
        "distance_metric": "euclidean",
        "placement_mode": "cluster",
        "placement_semantics": "area_center",
        "shelter_id": 15,
        "candidate_source": "cluster_candidates",
        "time_bucket": "5min",
        "time_seconds": 300,
        "coordinates": "31.737674,34.999733",
        "nearest_building_dist_m": 19.32,
        "newly_covered_buildings": 11,
        "newly_covered_people_est": 77
      }
    },
    {
      "type": "Feature",
      "geometry": {
        "type": "Point",
        "coordinates": [
          34.991721796122576,
          31.731765674600673
        ]
      },
      "properties": {
        "rank": 18,
        "distance_metric": "euclidean",
        "placement_mode": "cluster",
        "placement_semantics": "area_center",
        "shelter_id": 20,
        "candidate_source": "cluster_candidates",
        "time_bucket": "5min",
        "time_seconds": 300,
        "coordinates": "31.731766,34.991722",
        "nearest_building_dist_m": 16.41,
        "newly_covered_buildings": 14,
        "newly_covered_people_est": 98
      }
    },
    {
      "type": "Feature",
      "geometry": {
        "type": "Point",
        "coordinates": [
          34.99960656914331,
          31.747685035459792
        ]
      },
      "properties": {
        "rank": 19,
        "distance_metric": "euclidean",
        "placement_mode": "cluster",
        "placement_semantics": "area_center",
        "shelter_id": 41,
        "candidate_source": "cluster_candidates",
        "time_bucket": "5min",
        "time_seconds": 300,
        "coordinates": "31.747685,34.999607",
        "nearest_building_dist_m": 33.51,
        "newly_covered_buildings": 17,
        "newly_covered_people_est": 119
      }
    },
    {
      "type": "Feature",
      "geometry": {
        "type": "Point",
        "coordinates": [
          34.96220116853471,
          31.727052415361232
        ]
      },
      "properties": {
        "rank": 20,
        "distance_metric": "euclidean",
        "placement_mode": "cluster",
        "placement_semantics": "area_center",
        "shelter_id": 1,
        "candidate_source": "cluster_candidates",
        "time_bucket": "5min",
        "time_seconds": 300,
        "coordinates": "31.727052,34.962201",
        "nearest_building_dist_m": 0.0,
        "newly_covered_buildings": 6,
        "newly_covered_people_est": 42
      }
    },
    {
      "type": "Feature",
      "geometry": {
        "type": "Point",
        "coordinates": [
          34.99043305180048,
          31.7685541650229
        ]
      },
      "properties": {
        "rank": 21,
        "distance_metric": "euclidean",
        "placement_mode": "cluster",
        "placement_semantics": "area_center",
        "shelter_id": 16,
        "candidate_source": "cluster_candidates",
        "time_bucket": "5min",
        "time_seconds": 300,
        "coordinates": "31.768554,34.990433",
        "nearest_building_dist_m": 28.78,
        "newly_covered_buildings": 10,
        "newly_covered_people_est": 70
      }
    },
    {
      "type": "Feature",
      "geometry": {
        "type": "Point",
        "coordinates": [
          34.99271685822913,
          31.713111080251004
        ]
      },
      "properties": {
        "rank": 22,
        "distance_metric": "euclidean",
        "placement_mode": "cluster",
        "placement_semantics": "area_center",
        "shelter_id": 31,
        "candidate_source": "cluster_candidates",
        "time_bucket": "5min",
        "time_seconds": 300,
        "coordinates": "31.713111,34.992717",
        "nearest_building_dist_m": 22.21,
        "newly_covered_buildings": 12,
        "newly_covered_people_est": 84
      }
    },
    {
      "type": "Feature",
      "geometry": {
        "type": "Point",
        "coordinates": [
          34.99080198293637,
          31.74513657329746
        ]
      },
      "properties": {
        "rank": 23,
        "distance_metric": "euclidean",
        "placement_mode": "cluster",
        "placement_semantics": "area_center",
        "shelter_id": 33,
        "candidate_source": "cluster_candidates",
        "time_bucket": "5min",
        "time_seconds": 300,
        "coordinates": "31.745137,34.990802",
        "nearest_building_dist_m": 35.01,
        "newly_covered_buildings": 13,
        "newly_covered_people_est": 91
      }
    },
    {
      "type": "Feature",
      "geometry": {
        "type": "Point",
        "coordinates": [
          34.9949583259306,
          31.748808964125438
        ]
      },
      "properties": {
        "rank": 24,
        "distance_metric": "euclidean",
        "placement_mode": "cluster",
        "placement_semantics": "area_center",
        "shelter_id": 47,
        "candidate_source": "cluster_candidates",
        "time_bucket": "5min",
        "time_seconds": 300,
        "coordinates": "31.748809,34.994958",
        "nearest_building_dist_m": 30.7,
        "newly_covered_buildings": 16,
        "newly_covered_people_est": 112
      }
    },
    {
      "type": "Feature",
      "geometry": {
        "type": "Point",
        "coordinates": [
          34.989280346261296,
          31.71328533863146
        ]
      },
      "properties": {
        "rank": 25,
        "distance_metric": "euclidean",
        "placement_mode": "cluster",
        "placement_semantics": "area_center",
        "shelter_id": 56,
        "candidate_source": "cluster_candidates",
        "time_bucket": "5min",
        "time_seconds": 300,
        "coordinates": "31.713285,34.989280",
        "nearest_building_dist_m": 46.92,
        "newly_covered_buildings": 15,
        "newly_covered_people_est": 105
      }
    },
    {
      "type": "Feature",
      "geometry": {
        "type": "Point",
        "coordinates": [
          34.95671100694558,
          31.73351010201997
        ]
      },
      "properties": {
        "rank": 26,
        "distance_metric": "euclidean",
        "placement_mode": "cluster",
        "placement_semantics": "area_center",
        "shelter_id": 62,
        "candidate_source": "cluster_candidates",
        "time_bucket": "5min",
        "time_seconds": 300,
        "coordinates": "31.733510,34.956711",
        "nearest_building_dist_m": 70.24,
        "newly_covered_buildings": 26,
        "newly_covered_people_est": 182
      }
    },
    {
      "type": "Feature",
      "geometry": {
        "type": "Point",
        "coordinates": [
          34.99419270038855,
          31.7150574519384
        ]
      },
      "properties": {
        "rank": 27,
        "distance_metric": "euclidean",
        "placement_mode": "cluster",
        "placement_semantics": "area_center",
        "shelter_id": 69,
        "candidate_source": "cluster_candidates",
        "time_bucket": "5min",
        "time_seconds": 300,
        "coordinates": "31.715057,34.994193",
        "nearest_building_dist_m": 25.05,
        "newly_covered_buildings": 19,
        "newly_covered_people_est": 133
      }
    },
    {
      "type": "Feature",
      "geometry": {
        "type": "Point",
        "coordinates": [
          34.98307496439584,
          31.706843855730252
        ]
      },
      "properties": {
        "rank": 28,
        "distance_metric": "euclidean",
        "placement_mode": "cluster",
        "placement_semantics": "area_center",
        "shelter_id": 4,
        "candidate_source": "cluster_candidates",
        "time_bucket": "5min",
        "time_seconds": 300,
        "coordinates": "31.706844,34.983075",
        "nearest_building_dist_m": 23.94,
        "newly_covered_buildings": 6,
        "newly_covered_people_est": 42
      }
    },
    {
      "type": "Feature",
      "geometry": {
        "type": "Point",
        "coordinates": [
          34.99492243016681,
          31.7420585307394
        ]
      },
      "properties": {
        "rank": 29,
        "distance_metric": "euclidean",
        "placement_mode": "cluster",
        "placement_semantics": "area_center",
        "shelter_id": 21,
        "candidate_source": "cluster_candidates",
        "time_bucket": "5min",
        "time_seconds": 300,
        "coordinates": "31.742059,34.994922",
        "nearest_building_dist_m": 54.27,
        "newly_covered_buildings": 9,
        "newly_covered_people_est": 63
      }
    },
    {
      "type": "Feature",
      "geometry": {
        "type": "Point",
        "coordinates": [
          34.995981530609704,
          31.71060580048228
        ]
      },
      "properties": {
        "rank": 30,
        "distance_metric": "euclidean",
        "placement_mode": "cluster",
        "placement_semantics": "area_center",
        "shelter_id": 24,
        "candidate_source": "cluster_candidates",
        "time_bucket": "5min",
        "time_seconds": 300,
        "coordinates": "31.710606,34.995982",
        "nearest_building_dist_m": 27.18,
        "newly_covered_buildings": 9,
        "newly_covered_people_est": 63
      }
    },
    {
      "type": "Feature",
      "geometry": {
        "type": "Point",
        "coordinates": [
          34.991284938725684,
          31.735284649920448
        ]
      },
      "properties": {
        "rank": 31,
        "distance_metric": "euclidean",
        "placement_mode": "cluster",
        "placement_semantics": "area_center",
        "shelter_id": 35,
        "candidate_source": "cluster_candidates",
        "time_bucket": "5min",
        "time_seconds": 300,
        "coordinates": "31.735285,34.991285",
        "nearest_building_dist_m": 55.16,
        "newly_covered_buildings": 14,
        "newly_covered_people_est": 98
      }
    },
    {
      "type": "Feature",
      "geometry": {
        "type": "Point",
        "coordinates": [
          34.99354893650256,
          31.752171616891136
        ]
      },
      "properties": {
        "rank": 32,
        "distance_metric": "euclidean",
        "placement_mode": "cluster",
        "placement_semantics": "area_center",
        "shelter_id": 43,
        "candidate_source": "cluster_candidates",
        "time_bucket": "5min",
        "time_seconds": 300,
        "coordinates": "31.752172,34.993549",
        "nearest_building_dist_m": 10.78,
        "newly_covered_buildings": 12,
        "newly_covered_people_est": 84
      }
    },
    {
      "type": "Feature",
      "geometry": {
        "type": "Point",
        "coordinates": [
          34.98888640802318,
          31.716035605322023
        ]
      },
      "properties": {
        "rank": 33,
        "distance_metric": "euclidean",
        "placement_mode": "cluster",
        "placement_semantics": "area_center",
        "shelter_id": 44,
        "candidate_source": "cluster_candidates",
        "time_bucket": "5min",
        "time_seconds": 300,
        "coordinates": "31.716036,34.988886",
        "nearest_building_dist_m": 16.87,
        "newly_covered_buildings": 10,
        "newly_covered_people_est": 70
      }
    },
    {
      "type": "Feature",
      "geometry": {
        "type": "Point",
        "coordinates": [
          34.99043178624789,
          31.747165663229428
        ]
      },
      "properties": {
        "rank": 34,
        "distance_metric": "euclidean",
        "placement_mode": "cluster",
        "placement_semantics": "area_center",
        "shelter_id": 50,
        "candidate_source": "cluster_candidates",
        "time_bucket": "5min",
        "time_seconds": 300,
        "coordinates": "31.747166,34.990432",
        "nearest_building_dist_m": 41.56,
        "newly_covered_buildings": 13,
        "newly_covered_people_est": 91
      }
    },
    {
      "type": "Feature",
      "geometry": {
        "type": "Point",
        "coordinates": [
          34.98724171935699,
          31.736330618696627
        ]
      },
      "properties": {
        "rank": 35,
        "distance_metric": "euclidean",
        "placement_mode": "cluster",
        "placement_semantics": "area_center",
        "shelter_id": 60,
        "candidate_source": "cluster_candidates",
        "time_bucket": "5min",
        "time_seconds": 300,
        "coordinates": "31.736331,34.987242",
        "nearest_building_dist_m": 64.38,
        "newly_covered_buildings": 10,
        "newly_covered_people_est": 70
      }
    },
    {
      "type": "Feature",
      "geometry": {
        "type": "Point",
        "coordinates": [
          34.95699310808263,
          31.735375676201834
        ]
      },
      "properties": {
        "rank": 36,
        "distance_metric": "euclidean",
        "placement_mode": "cluster",
        "placement_semantics": "area_center",
        "shelter_id": 66,
        "candidate_source": "cluster_candidates",
        "time_bucket": "5min",
        "time_seconds": 300,
        "coordinates": "31.735376,34.956993",
        "nearest_building_dist_m": 23.16,
        "newly_covered_buildings": 11,
        "newly_covered_people_est": 77
      }
    },
    {
      "type": "Feature",
      "geometry": {
        "type": "Point",
        "coordinates": [
          35.0008010133917,
          31.711328424673127
        ]
      },
      "properties": {
        "rank": 37,
        "distance_metric": "euclidean",
        "placement_mode": "cluster",
        "placement_semantics": "area_center",
        "shelter_id": 5,
        "candidate_source": "cluster_candidates",
        "time_bucket": "5min",
        "time_seconds": 300,
        "coordinates": "31.711328,35.000801",
        "nearest_building_dist_m": 39.88,
        "newly_covered_buildings": 5,
        "newly_covered_people_est": 35
      }
    },
    {
      "type": "Feature",
      "geometry": {
        "type": "Point",
        "coordinates": [
          34.99948163142918,
          31.750773911323506
        ]
      },
      "properties": {
        "rank": 38,
        "distance_metric": "euclidean",
        "placement_mode": "cluster",
        "placement_semantics": "area_center",
        "shelter_id": 8,
        "candidate_source": "cluster_candidates",
        "time_bucket": "5min",
        "time_seconds": 300,
        "coordinates": "31.750774,34.999482",
        "nearest_building_dist_m": 12.01,
        "newly_covered_buildings": 7,
        "newly_covered_people_est": 49
      }
    },
    {
      "type": "Feature",
      "geometry": {
        "type": "Point",
        "coordinates": [
          34.999419007040835,
          31.707989921156724
        ]
      },
      "properties": {
        "rank": 39,
        "distance_metric": "euclidean",
        "placement_mode": "cluster",
        "placement_semantics": "area_center",
        "shelter_id": 9,
        "candidate_source": "cluster_candidates",
        "time_bucket": "5min",
        "time_seconds": 300,
        "coordinates": "31.707990,34.999419",
        "nearest_building_dist_m": 25.41,
        "newly_covered_buildings": 6,
        "newly_covered_people_est": 42
      }
    },
    {
      "type": "Feature",
      "geometry": {
        "type": "Point",
        "coordinates": [
          34.992739793604876,
          31.709463119608454
        ]
      },
      "properties": {
        "rank": 40,
        "distance_metric": "euclidean",
        "placement_mode": "cluster",
        "placement_semantics": "area_center",
        "shelter_id": 11,
        "candidate_source": "cluster_candidates",
        "time_bucket": "5min",
        "time_seconds": 300,
        "coordinates": "31.709463,34.992740",
        "nearest_building_dist_m": 16.19,
        "newly_covered_buildings": 5,
        "newly_covered_people_est": 35
      }
    },
    {
      "type": "Feature",
      "geometry": {
        "type": "Point",
        "coordinates": [
          34.99752628133518,
          31.71559941427927
        ]
      },
      "properties": {
        "rank": 41,
        "distance_metric": "euclidean",
        "placement_mode": "cluster",
        "placement_semantics": "area_center",
        "shelter_id": 23,
        "candidate_source": "cluster_candidates",
        "time_bucket": "5min",
        "time_seconds": 300,
        "coordinates": "31.715599,34.997526",
        "nearest_building_dist_m": 43.72,
        "newly_covered_buildings": 8,
        "newly_covered_people_est": 56
      }
    },
    {
      "type": "Feature",
      "geometry": {
        "type": "Point",
        "coordinates": [
          34.99255653691634,
          31.72880696703801
        ]
      },
      "properties": {
        "rank": 42,
        "distance_metric": "euclidean",
        "placement_mode": "cluster",
        "placement_semantics": "area_center",
        "shelter_id": 25,
        "candidate_source": "cluster_candidates",
        "time_bucket": "5min",
        "time_seconds": 300,
        "coordinates": "31.728807,34.992557",
        "nearest_building_dist_m": 46.55,
        "newly_covered_buildings": 8,
        "newly_covered_people_est": 56
      }
    },
    {
      "type": "Feature",
      "geometry": {
        "type": "Point",
        "coordinates": [
          34.999559613852924,
          31.745693254584097
        ]
      },
      "properties": {
        "rank": 43,
        "distance_metric": "euclidean",
        "placement_mode": "cluster",
        "placement_semantics": "area_center",
        "shelter_id": 29,
        "candidate_source": "cluster_candidates",
        "time_bucket": "5min",
        "time_seconds": 300,
        "coordinates": "31.745693,34.999560",
        "nearest_building_dist_m": 83.44,
        "newly_covered_buildings": 9,
        "newly_covered_people_est": 63
      }
    },
    {
      "type": "Feature",
      "geometry": {
        "type": "Point",
        "coordinates": [
          34.99105471318857,
          31.72329326585631
        ]
      },
      "properties": {
        "rank": 44,
        "distance_metric": "euclidean",
        "placement_mode": "cluster",
        "placement_semantics": "area_center",
        "shelter_id": 30,
        "candidate_source": "cluster_candidates",
        "time_bucket": "5min",
        "time_seconds": 300,
        "coordinates": "31.723293,34.991055",
        "nearest_building_dist_m": 60.03,
        "newly_covered_buildings": 7,
        "newly_covered_people_est": 49
      }
    },
    {
      "type": "Feature",
      "geometry": {
        "type": "Point",
        "coordinates": [
          34.99188342231644,
          31.754238044486495
        ]
      },
      "properties": {
        "rank": 45,
        "distance_metric": "euclidean",
        "placement_mode": "cluster",
        "placement_semantics": "area_center",
        "shelter_id": 32,
        "candidate_source": "cluster_candidates",
        "time_bucket": "5min",
        "time_seconds": 300,
        "coordinates": "31.754238,34.991883",
        "nearest_building_dist_m": 47.19,
        "newly_covered_buildings": 13,
        "newly_covered_people_est": 91
      }
    },
    {
      "type": "Feature",
      "geometry": {
        "type": "Point",
        "coordinates": [
          34.99048890418301,
          31.757594315381613
        ]
      },
      "properties": {
        "rank": 46,
        "distance_metric": "euclidean",
        "placement_mode": "cluster",
        "placement_semantics": "area_center",
        "shelter_id": 34,
        "candidate_source": "cluster_candidates",
        "time_bucket": "5min",
        "time_seconds": 300,
        "coordinates": "31.757594,34.990489",
        "nearest_building_dist_m": 72.67,
        "newly_covered_buildings": 8,
        "newly_covered_people_est": 56
      }
    },
    {
      "type": "Feature",
      "geometry": {
        "type": "Point",
        "coordinates": [
          34.983811445716114,
          31.741480189885824
        ]
      },
      "properties": {
        "rank": 47,
        "distance_metric": "euclidean",
        "placement_mode": "cluster",
        "placement_semantics": "area_center",
        "shelter_id": 49,
        "candidate_source": "cluster_candidates",
        "time_bucket": "5min",
        "time_seconds": 300,
        "coordinates": "31.741480,34.983811",
        "nearest_building_dist_m": 9.5,
        "newly_covered_buildings": 13,
        "newly_covered_people_est": 91
      }
    },
    {
      "type": "Feature",
      "geometry": {
        "type": "Point",
        "coordinates": [
          34.980587913110114,
          31.74100859418003
        ]
      },
      "properties": {
        "rank": 48,
        "distance_metric": "euclidean",
        "placement_mode": "cluster",
        "placement_semantics": "area_center",
        "shelter_id": 85,
        "candidate_source": "cluster_candidates",
        "time_bucket": "5min",
        "time_seconds": 300,
        "coordinates": "31.741009,34.980588",
        "nearest_building_dist_m": 25.15,
        "newly_covered_buildings": 11,
        "newly_covered_people_est": 77
      }
    },
    {
      "type": "Feature",
      "geometry": {
        "type": "Point",
        "coordinates": [
          34.98296135186167,
          31.74744689086289
        ]
      },
      "properties": {
        "rank": 49,
        "distance_metric": "euclidean",
        "placement_mode": "cluster",
        "placement_semantics": "area_center",
        "shelter_id": 87,
        "candidate_source": "cluster_candidates",
        "time_bucket": "5min",
        "time_seconds": 300,
        "coordinates": "31.747447,34.982961",
        "nearest_building_dist_m": 24.06,
        "newly_covered_buildings": 13,
        "newly_covered_people_est": 91
      }
    },
    {
      "type": "Feature",
      "geometry": {
        "type": "Point",
        "coordinates": [
          34.994668897396004,
          31.75010920423081
        ]
      },
      "properties": {
        "rank": 50,
        "distance_metric": "euclidean",
        "placement_mode": "cluster",
        "placement_semantics": "area_center",
        "shelter_id": 88,
        "candidate_source": "cluster_candidates",
        "time_bucket": "5min",
        "time_seconds": 300,
        "coordinates": "31.750109,34.994669",
        "nearest_building_dist_m": 15.49,
        "newly_covered_buildings": 18,
        "newly_covered_people_est": 126
      }
    },
    {
      "type": "Feature",
      "geometry": {
        "type": "Point",
        "coordinates": [
          34.99150337165137,
          31.733525162708887
        ]
      },
      "properties": {
        "rank": 51,
        "distance_metric": "euclidean",
        "placement_mode": "cluster",
        "placement_semantics": "area_center",
        "shelter_id": 130,
        "candidate_source": "cluster_candidates",
        "time_bucket": "5min",
        "time_seconds": 300,
        "coordinates": "31.733525,34.991503",
        "nearest_building_dist_m": 58.85,
        "newly_covered_buildings": 28,
        "newly_covered_people_est": 196
      }
    },
    {
      "type": "Feature",
      "geometry": {
        "type": "Point",
        "coordinates": [
          34.986946359006,
          31.713285007550237
        ]
      },
      "properties": {
        "rank": 52,
        "distance_metric": "euclidean",
        "placement_mode": "cluster",
        "placement_semantics": "area_center",
        "shelter_id": 22,
        "candidate_source": "cluster_candidates",
        "time_bucket": "5min",
        "time_seconds": 300,
        "coordinates": "31.713285,34.986946",
        "nearest_building_dist_m": 29.89,
        "newly_covered_buildings": 5,
        "newly_covered_people_est": 35
      }
    },
    {
      "type": "Feature",
      "geometry": {
        "type": "Point",
        "coordinates": [
          34.984422145923276,
          31.74982465429684
        ]
      },
      "properties": {
        "rank": 53,
        "distance_metric": "euclidean",
        "placement_mode": "cluster",
        "placement_semantics": "area_center",
        "shelter_id": 37,
        "candidate_source": "cluster_candidates",
        "time_bucket": "5min",
        "time_seconds": 300,
        "coordinates": "31.749825,34.984422",
        "nearest_building_dist_m": 35.01,
        "newly_covered_buildings": 13,
        "newly_covered_people_est": 91
      }
    },
    {
      "type": "Feature",
      "geometry": {
        "type": "Point",
        "coordinates": [
          34.98311930052713,
          31.74000677683297
        ]
      },
      "properties": {
        "rank": 54,
        "distance_metric": "euclidean",
        "placement_mode": "cluster",
        "placement_semantics": "area_center",
        "shelter_id": 48,
        "candidate_source": "cluster_candidates",
        "time_bucket": "5min",
        "time_seconds": 300,
        "coordinates": "31.740007,34.983119",
        "nearest_building_dist_m": 48.42,
        "newly_covered_buildings": 9,
        "newly_covered_people_est": 63
      }
    },
    {
      "type": "Feature",
      "geometry": {
        "type": "Point",
        "coordinates": [
          34.992386998072966,
          31.739263796167283
        ]
      },
      "properties": {
        "rank": 55,
        "distance_metric": "euclidean",
        "placement_mode": "cluster",
        "placement_semantics": "area_center",
        "shelter_id": 55,
        "candidate_source": "cluster_candidates",
        "time_bucket": "5min",
        "time_seconds": 300,
        "coordinates": "31.739264,34.992387",
        "nearest_building_dist_m": 13.88,
        "newly_covered_buildings": 15,
        "newly_covered_people_est": 105
      }
    },
    {
      "type": "Feature",
      "geometry": {
        "type": "Point",
        "coordinates": [
          34.99349297527255,
          31.715973487700268
        ]
      },
      "properties": {
        "rank": 56,
        "distance_metric": "euclidean",
        "placement_mode": "cluster",
        "placement_semantics": "area_center",
        "shelter_id": 64,
        "candidate_source": "cluster_candidates",
        "time_bucket": "5min",
        "time_seconds": 300,
        "coordinates": "31.715973,34.993493",
        "nearest_building_dist_m": 20.82,
        "newly_covered_buildings": 16,
        "newly_covered_people_est": 112
      }
    },
    {
      "type": "Feature",
      "geometry": {
        "type": "Point",
        "coordinates": [
          34.99002684836282,
          31.735818912448188
        ]
      },
      "properties": {
        "rank": 57,
        "distance_metric": "euclidean",
        "placement_mode": "cluster",
        "placement_semantics": "area_center",
        "shelter_id": 71,
        "candidate_source": "cluster_candidates",
        "time_bucket": "5min",
        "time_seconds": 300,
        "coordinates": "31.735819,34.990027",
        "nearest_building_dist_m": 32.66,
        "newly_covered_buildings": 17,
        "newly_covered_people_est": 119
      }
    },
    {
      "type": "Feature",
      "geometry": {
        "type": "Point",
        "coordinates": [
          34.99127271587457,
          31.7515034211014
        ]
      },
      "properties": {
        "rank": 58,
        "distance_metric": "euclidean",
        "placement_mode": "cluster",
        "placement_semantics": "area_center",
        "shelter_id": 81,
        "candidate_source": "cluster_candidates",
        "time_bucket": "5min",
        "time_seconds": 300,
        "coordinates": "31.751503,34.991273",
        "nearest_building_dist_m": 36.73,
        "newly_covered_buildings": 19,
        "newly_covered_people_est": 133
      }
    },
    {
      "type": "Feature",
      "geometry": {
        "type": "Point",
        "coordinates": [
          34.99375753097183,
          31.746887302250506
        ]
      },
      "properties": {
        "rank": 59,
        "distance_metric": "euclidean",
        "placement_mode": "cluster",
        "placement_semantics": "area_center",
        "shelter_id": 82,
        "candidate_source": "cluster_candidates",
        "time_bucket": "5min",
        "time_seconds": 300,
        "coordinates": "31.746887,34.993758",
        "nearest_building_dist_m": 15.54,
        "newly_covered_buildings": 32,
        "newly_covered_people_est": 224
      }
    },
    {
      "type": "Feature",
      "geometry": {
        "type": "Point",
        "coordinates": [
          34.993738622727584,
          31.728050555018655
        ]
      },
      "properties": {
        "rank": 60,
        "distance_metric": "euclidean",
        "placement_mode": "cluster",
        "placement_semantics": "area_center",
        "shelter_id": 89,
        "candidate_source": "cluster_candidates",
        "time_bucket": "5min",
        "time_seconds": 300,
        "coordinates": "31.728051,34.993739",
        "nearest_building_dist_m": 77.05,
        "newly_covered_buildings": 16,
        "newly_covered_people_est": 112
      }
    },
    {
      "type": "Feature",
      "geometry": {
        "type": "Point",
        "coordinates": [
          34.99351635085791,
          31.737193050702285
        ]
      },
      "properties": {
        "rank": 61,
        "distance_metric": "euclidean",
        "placement_mode": "cluster",
        "placement_semantics": "area_center",
        "shelter_id": 95,
        "candidate_source": "cluster_candidates",
        "time_bucket": "5min",
        "time_seconds": 300,
        "coordinates": "31.737193,34.993516",
        "nearest_building_dist_m": 68.71,
        "newly_covered_buildings": 16,
        "newly_covered_people_est": 112
      }
    },
    {
      "type": "Feature",
      "geometry": {
        "type": "Point",
        "coordinates": [
          34.99233712997948,
          31.74550824419366
        ]
      },
      "properties": {
        "rank": 62,
        "distance_metric": "euclidean",
        "placement_mode": "cluster",
        "placement_semantics": "area_center",
        "shelter_id": 99,
        "candidate_source": "cluster_candidates",
        "time_bucket": "5min",
        "time_seconds": 300,
        "coordinates": "31.745508,34.992337",
        "nearest_building_dist_m": 48.51,
        "newly_covered_buildings": 31,
        "newly_covered_people_est": 217
      }
    },
    {
      "type": "Feature",
      "geometry": {
        "type": "Point",
        "coordinates": [
          34.9978324530148,
          31.709073595556234
        ]
      },
      "properties": {
        "rank": 63,
        "distance_metric": "euclidean",
        "placement_mode": "cluster",
        "placement_semantics": "area_center",
        "shelter_id": 109,
        "candidate_source": "cluster_candidates",
        "time_bucket": "5min",
        "time_seconds": 300,
        "coordinates": "31.709074,34.997832",
        "nearest_building_dist_m": 13.25,
        "newly_covered_buildings": 14,
        "newly_covered_people_est": 98
      }
    },
    {
      "type": "Feature",
      "geometry": {
        "type": "Point",
        "coordinates": [
          34.98124366465372,
          31.739521575419648
        ]
      },
      "properties": {
        "rank": 64,
        "distance_metric": "euclidean",
        "placement_mode": "cluster",
        "placement_semantics": "area_center",
        "shelter_id": 110,
        "candidate_source": "cluster_candidates",
        "time_bucket": "5min",
        "time_seconds": 300,
        "coordinates": "31.739522,34.981244",
        "nearest_building_dist_m": 42.0,
        "newly_covered_buildings": 10,
        "newly_covered_people_est": 70
      }
    },
    {
      "type": "Feature",
      "geometry": {
        "type": "Point",
        "coordinates": [
          34.985545273608516,
          31.739748303902758
        ]
      },
      "properties": {
        "rank": 65,
        "distance_metric": "euclidean",
        "placement_mode": "cluster",
        "placement_semantics": "area_center",
        "shelter_id": 120,
        "candidate_source": "cluster_candidates",
        "time_bucket": "5min",
        "time_seconds": 300,
        "coordinates": "31.739748,34.985545",
        "nearest_building_dist_m": 48.33,
        "newly_covered_buildings": 16,
        "newly_covered_people_est": 112
      }
    },
    {
      "type": "Feature",
      "geometry": {
        "type": "Point",
        "coordinates": [
          34.977355626898984,
          31.739749449012024
        ]
      },
      "properties": {
        "rank": 66,
        "distance_metric": "euclidean",
        "placement_mode": "cluster",
        "placement_semantics": "area_center",
        "shelter_id": 28,
        "candidate_source": "cluster_candidates",
        "time_bucket": "5min",
        "time_seconds": 300,
        "coordinates": "31.739749,34.977356",
        "nearest_building_dist_m": 54.2,
        "newly_covered_buildings": 7,
        "newly_covered_people_est": 49
      }
    },
    {
      "type": "Feature",
      "geometry": {
        "type": "Point",
        "coordinates": [
          34.9877099005982,
          31.704703948082706
        ]
      },
      "properties": {
        "rank": 67,
        "distance_metric": "euclidean",
        "placement_mode": "cluster",
        "placement_semantics": "area_center",
        "shelter_id": 45,
        "candidate_source": "cluster_candidates",
        "time_bucket": "5min",
        "time_seconds": 300,
        "coordinates": "31.704704,34.987710",
        "nearest_building_dist_m": 95.22,
        "newly_covered_buildings": 6,
        "newly_covered_people_est": 42
      }
    },
    {
      "type": "Feature",
      "geometry": {
        "type": "Point",
        "coordinates": [
          34.98324901105657,
          31.702256977336575
        ]
      },
      "properties": {
        "rank": 68,
        "distance_metric": "euclidean",
        "placement_mode": "cluster",
        "placement_semantics": "area_center",
        "shelter_id": 51,
        "candidate_source": "cluster_candidates",
        "time_bucket": "5min",
        "time_seconds": 300,
        "coordinates": "31.702257,34.983249",
        "nearest_building_dist_m": 70.24,
        "newly_covered_buildings": 6,
        "newly_covered_people_est": 42
      }
    },
    {
      "type": "Feature",
      "geometry": {
        "type": "Point",
        "coordinates": [
          34.99980816990008,
          31.749036914860195
        ]
      },
      "properties": {
        "rank": 69,
        "distance_metric": "euclidean",
        "placement_mode": "cluster",
        "placement_semantics": "area_center",
        "shelter_id": 52,
        "candidate_source": "cluster_candidates",
        "time_bucket": "5min",
        "time_seconds": 300,
        "coordinates": "31.749037,34.999808",
        "nearest_building_dist_m": 44.98,
        "newly_covered_buildings": 17,
        "newly_covered_people_est": 119
      }
    },
    {
      "type": "Feature",
      "geometry": {
        "type": "Point",
        "coordinates": [
          34.990924431791484,
          31.713198678617374
        ]
      },
      "properties": {
        "rank": 70,
        "distance_metric": "euclidean",
        "placement_mode": "cluster",
        "placement_semantics": "area_center",
        "shelter_id": 57,
        "candidate_source": "cluster_candidates",
        "time_bucket": "5min",
        "time_seconds": 300,
        "coordinates": "31.713199,34.990924",
        "nearest_building_dist_m": 68.92,
        "newly_covered_buildings": 20,
        "newly_covered_people_est": 140
      }
    },
    {
      "type": "Feature",
      "geometry": {
        "type": "Point",
        "coordinates": [
          34.95375351818891,
          31.733725194722446
        ]
      },
      "properties": {
        "rank": 71,
        "distance_metric": "euclidean",
        "placement_mode": "cluster",
        "placement_semantics": "area_center",
        "shelter_id": 61,
        "candidate_source": "cluster_candidates",
        "time_bucket": "5min",
        "time_seconds": 300,
        "coordinates": "31.733725,34.953754",
        "nearest_building_dist_m": 35.96,
        "newly_covered_buildings": 26,
        "newly_covered_people_est": 182
      }
    },
    {
      "type": "Feature",
      "geometry": {
        "type": "Point",
        "coordinates": [
          34.99884377034735,
          31.744191680289305
        ]
      },
      "properties": {
        "rank": 72,
        "distance_metric": "euclidean",
        "placement_mode": "cluster",
        "placement_semantics": "area_center",
        "shelter_id": 86,
        "candidate_source": "cluster_candidates",
        "time_bucket": "5min",
        "time_seconds": 300,
        "coordinates": "31.744192,34.998844",
        "nearest_building_dist_m": 28.32,
        "newly_covered_buildings": 23,
        "newly_covered_people_est": 161
      }
    },
    {
      "type": "Feature",
      "geometry": {
        "type": "Point",
        "coordinates": [
          34.98808872336225,
          31.717005544382722
        ]
      },
      "properties": {
        "rank": 73,
        "distance_metric": "euclidean",
        "placement_mode": "cluster",
        "placement_semantics": "area_center",
        "shelter_id": 93,
        "candidate_source": "cluster_candidates",
        "time_bucket": "5min",
        "time_seconds": 300,
        "coordinates": "31.717006,34.988089",
        "nearest_building_dist_m": 78.12,
        "newly_covered_buildings": 10,
        "newly_covered_people_est": 70
      }
    },
    {
      "type": "Feature",
      "geometry": {
        "type": "Point",
        "coordinates": [
          34.99580745925413,
          31.752324808192494
        ]
      },
      "properties": {
        "rank": 74,
        "distance_metric": "euclidean",
        "placement_mode": "cluster",
        "placement_semantics": "area_center",
        "shelter_id": 97,
        "candidate_source": "cluster_candidates",
        "time_bucket": "5min",
        "time_seconds": 300,
        "coordinates": "31.752325,34.995807",
        "nearest_building_dist_m": 68.9,
        "newly_covered_buildings": 9,
        "newly_covered_people_est": 63
      }
    },
    {
      "type": "Feature",
      "geometry": {
        "type": "Point",
        "coordinates": [
          34.98865419109852,
          31.73617134484729
        ]
      },
      "properties": {
        "rank": 75,
        "distance_metric": "euclidean",
        "placement_mode": "cluster",
        "placement_semantics": "area_center",
        "shelter_id": 108,
        "candidate_source": "cluster_candidates",
        "time_bucket": "5min",
        "time_seconds": 300,
        "coordinates": "31.736171,34.988654",
        "nearest_building_dist_m": 41.15,
        "newly_covered_buildings": 17,
        "newly_covered_people_est": 119
      }
    },
    {
      "type": "Feature",
      "geometry": {
        "type": "Point",
        "coordinates": [
          34.98915887654998,
          31.714367437977177
        ]
      },
      "properties": {
        "rank": 76,
        "distance_metric": "euclidean",
        "placement_mode": "cluster",
        "placement_semantics": "area_center",
        "shelter_id": 118,
        "candidate_source": "cluster_candidates",
        "time_bucket": "5min",
        "time_seconds": 300,
        "coordinates": "31.714367,34.989159",
        "nearest_building_dist_m": 39.16,
        "newly_covered_buildings": 24,
        "newly_covered_people_est": 168
      }
    },
    {
      "type": "Feature",
      "geometry": {
        "type": "Point",
        "coordinates": [
          34.98990310904206,
          31.769739306939616
        ]
      },
      "properties": {
        "rank": 77,
        "distance_metric": "euclidean",
        "placement_mode": "cluster",
        "placement_semantics": "area_center",
        "shelter_id": 121,
        "candidate_source": "cluster_candidates",
        "time_bucket": "5min",
        "time_seconds": 300,
        "coordinates": "31.769739,34.989903",
        "nearest_building_dist_m": 44.23,
        "newly_covered_buildings": 16,
        "newly_covered_people_est": 112
      }
    },
    {
      "type": "Feature",
      "geometry": {
        "type": "Point",
        "coordinates": [
          34.984125451137245,
          31.73646772736454
        ]
      },
      "properties": {
        "rank": 78,
        "distance_metric": "euclidean",
        "placement_mode": "cluster",
        "placement_semantics": "area_center",
        "shelter_id": 131,
        "candidate_source": "cluster_candidates",
        "time_bucket": "5min",
        "time_seconds": 300,
        "coordinates": "31.736468,34.984125",
        "nearest_building_dist_m": 58.53,
        "newly_covered_buildings": 6,
        "newly_covered_people_est": 42
      }
    },
    {
      "type": "Feature",
      "geometry": {
        "type": "Point",
        "coordinates": [
          34.993551526578614,
          31.75939746963043
        ]
      },
      "properties": {
        "rank": 79,
        "distance_metric": "euclidean",
        "placement_mode": "cluster",
        "placement_semantics": "area_center",
        "shelter_id": 137,
        "candidate_source": "cluster_candidates",
        "time_bucket": "5min",
        "time_seconds": 300,
        "coordinates": "31.759397,34.993552",
        "nearest_building_dist_m": 17.42,
        "newly_covered_buildings": 28,
        "newly_covered_people_est": 196
      }
    },
    {
      "type": "Feature",
      "geometry": {
        "type": "Point",
        "coordinates": [
          34.982814090146896,
          31.750091478795767
        ]
      },
      "properties": {
        "rank": 80,
        "distance_metric": "euclidean",
        "placement_mode": "cluster",
        "placement_semantics": "area_center",
        "shelter_id": 140,
        "candidate_source": "cluster_candidates",
        "time_bucket": "5min",
        "time_seconds": 300,
        "coordinates": "31.750091,34.982814",
        "nearest_building_dist_m": 27.49,
        "newly_covered_buildings": 32,
        "newly_covered_people_est": 224
      }
    },
    {
      "type": "Feature",
      "geometry": {
        "type": "Point",
        "coordinates": [
          34.990698219217265,
          31.755770532347878
        ]
      },
      "properties": {
        "rank": 81,
        "distance_metric": "euclidean",
        "placement_mode": "cluster",
        "placement_semantics": "area_center",
        "shelter_id": 146,
        "candidate_source": "cluster_candidates",
        "time_bucket": "5min",
        "time_seconds": 300,
        "coordinates": "31.755771,34.990698",
        "nearest_building_dist_m": 61.21,
        "newly_covered_buildings": 40,
        "newly_covered_people_est": 280
      }
    },
    {
      "type": "Feature",
      "geometry": {
        "type": "Point",
        "coordinates": [
          34.99174238667778,
          31.741421613431616
        ]
      },
      "properties": {
        "rank": 82,
        "distance_metric": "euclidean",
        "placement_mode": "cluster",
        "placement_semantics": "area_center",
        "shelter_id": 148,
        "candidate_source": "cluster_candidates",
        "time_bucket": "5min",
        "time_seconds": 300,
        "coordinates": "31.741422,34.991742",
        "nearest_building_dist_m": 40.63,
        "newly_covered_buildings": 14,
        "newly_covered_people_est": 98
      }
    },
    {
      "type": "Feature",
      "geometry": {
        "type": "Point",
        "coordinates": [
          34.98887088471754,
          31.750001416771514
        ]
      },
      "properties": {
        "rank": 83,
        "distance_metric": "euclidean",
        "placement_mode": "cluster",
        "placement_semantics": "area_center",
        "shelter_id": 17,
        "candidate_source": "cluster_candidates",
        "time_bucket": "5min",
        "time_seconds": 300,
        "coordinates": "31.750001,34.988871",
        "nearest_building_dist_m": 22.95,
        "newly_covered_buildings": 21,
        "newly_covered_people_est": 147
      }
    },
    {
      "type": "Feature",
      "geometry": {
        "type": "Point",
        "coordinates": [
          34.99286031238402,
          31.7551053642562
        ]
      },
      "properties": {
        "rank": 84,
        "distance_metric": "euclidean",
        "placement_mode": "cluster",
        "placement_semantics": "area_center",
        "shelter_id": 39,
        "candidate_source": "cluster_candidates",
        "time_bucket": "5min",
        "time_seconds": 300,
        "coordinates": "31.755105,34.992860",
        "nearest_building_dist_m": 5.32,
        "newly_covered_buildings": 25,
        "newly_covered_people_est": 175
      }
    },
    {
      "type": "Feature",
      "geometry": {
        "type": "Point",
        "coordinates": [
          34.98253831216334,
          31.751488833498954
        ]
      },
      "properties": {
        "rank": 85,
        "distance_metric": "euclidean",
        "placement_mode": "cluster",
        "placement_semantics": "area_center",
        "shelter_id": 46,
        "candidate_source": "cluster_candidates",
        "time_bucket": "5min",
        "time_seconds": 300,
        "coordinates": "31.751489,34.982538",
        "nearest_building_dist_m": 13.39,
        "newly_covered_buildings": 15,
        "newly_covered_people_est": 105
      }
    },
    {
      "type": "Feature",
      "geometry": {
        "type": "Point",
        "coordinates": [
          34.98901984091125,
          31.771714537944458
        ]
      },
      "properties": {
        "rank": 86,
        "distance_metric": "euclidean",
        "placement_mode": "cluster",
        "placement_semantics": "area_center",
        "shelter_id": 63,
        "candidate_source": "cluster_candidates",
        "time_bucket": "5min",
        "time_seconds": 300,
        "coordinates": "31.771715,34.989020",
        "nearest_building_dist_m": 57.2,
        "newly_covered_buildings": 6,
        "newly_covered_people_est": 42
      }
    },
    {
      "type": "Feature",
      "geometry": {
        "type": "Point",
        "coordinates": [
          34.98782335728247,
          31.752223833572565
        ]
      },
      "properties": {
        "rank": 87,
        "distance_metric": "euclidean",
        "placement_mode": "cluster",
        "placement_semantics": "area_center",
        "shelter_id": 65,
        "candidate_source": "cluster_candidates",
        "time_bucket": "5min",
        "time_seconds": 300,
        "coordinates": "31.752224,34.987823",
        "nearest_building_dist_m": 67.92,
        "newly_covered_buildings": 9,
        "newly_covered_people_est": 63
      }
    },
    {
      "type": "Feature",
      "geometry": {
        "type": "Point",
        "coordinates": [
          34.98665455552117,
          31.741202751521794
        ]
      },
      "properties": {
        "rank": 88,
        "distance_metric": "euclidean",
        "placement_mode": "cluster",
        "placement_semantics": "area_center",
        "shelter_id": 67,
        "candidate_source": "cluster_candidates",
        "time_bucket": "5min",
        "time_seconds": 300,
        "coordinates": "31.741203,34.986655",
        "nearest_building_dist_m": 41.9,
        "newly_covered_buildings": 14,
        "newly_covered_people_est": 98
      }
    },
    {
      "type": "Feature",
      "geometry": {
        "type": "Point",
        "coordinates": [
          34.99016172899082,
          31.744108737403067
        ]
      },
      "properties": {
        "rank": 89,
        "distance_metric": "euclidean",
        "placement_mode": "cluster",
        "placement_semantics": "area_center",
        "shelter_id": 68,
        "candidate_source": "cluster_candidates",
        "time_bucket": "5min",
        "time_seconds": 300,
        "coordinates": "31.744109,34.990162",
        "nearest_building_dist_m": 51.16,
        "newly_covered_buildings": 10,
        "newly_covered_people_est": 70
      }
    },
    {
      "type": "Feature",
      "geometry": {
        "type": "Point",
        "coordinates": [
          34.99684493330246,
          31.738413150287553
        ]
      },
      "properties": {
        "rank": 90,
        "distance_metric": "euclidean",
        "placement_mode": "cluster",
        "placement_semantics": "area_center",
        "shelter_id": 75,
        "candidate_source": "cluster_candidates",
        "time_bucket": "5min",
        "time_seconds": 300,
        "coordinates": "31.738413,34.996845",
        "nearest_building_dist_m": 62.18,
        "newly_covered_buildings": 10,
        "newly_covered_people_est": 70
      }
    },
    {
      "type": "Feature",
      "geometry": {
        "type": "Point",
        "coordinates": [
          34.99709064618786,
          31.742444597442507
        ]
      },
      "properties": {
        "rank": 91,
        "distance_metric": "euclidean",
        "placement_mode": "cluster",
        "placement_semantics": "area_center",
        "shelter_id": 76,
        "candidate_source": "cluster_candidates",
        "time_bucket": "5min",
        "time_seconds": 300,
        "coordinates": "31.742445,34.997091",
        "nearest_building_dist_m": 65.44,
        "newly_covered_buildings": 20,
        "newly_covered_people_est": 140
      }
    },
    {
      "type": "Feature",
      "geometry": {
        "type": "Point",
        "coordinates": [
          34.98532238731553,
          31.741236126752217
        ]
      },
      "properties": {
        "rank": 92,
        "distance_metric": "euclidean",
        "placement_mode": "cluster",
        "placement_semantics": "area_center",
        "shelter_id": 79,
        "candidate_source": "cluster_candidates",
        "time_bucket": "5min",
        "time_seconds": 300,
        "coordinates": "31.741236,34.985322",
        "nearest_building_dist_m": 22.95,
        "newly_covered_buildings": 21,
        "newly_covered_people_est": 147
      }
    },
    {
      "type": "Feature",
      "geometry": {
        "type": "Point",
        "coordinates": [
          34.994701139864965,
          31.739624980483853
        ]
      },
      "properties": {
        "rank": 93,
        "distance_metric": "euclidean",
        "placement_mode": "cluster",
        "placement_semantics": "area_center",
        "shelter_id": 80,
        "candidate_source": "cluster_candidates",
        "time_bucket": "5min",
        "time_seconds": 300,
        "coordinates": "31.739625,34.994701",
        "nearest_building_dist_m": 36.98,
        "newly_covered_buildings": 24,
        "newly_covered_people_est": 168
      }
    },
    {
      "type": "Feature",
      "geometry": {
        "type": "Point",
        "coordinates": [
          34.98883488274104,
          31.747178116461978
        ]
      },
      "properties": {
        "rank": 94,
        "distance_metric": "euclidean",
        "placement_mode": "cluster",
        "placement_semantics": "area_center",
        "shelter_id": 83,
        "candidate_source": "cluster_candidates",
        "time_bucket": "5min",
        "time_seconds": 300,
        "coordinates": "31.747178,34.988835",
        "nearest_building_dist_m": 68.21,
        "newly_covered_buildings": 12,
        "newly_covered_people_est": 84
      }
    },
    {
      "type": "Feature",
      "geometry": {
        "type": "Point",
        "coordinates": [
          34.97798069497856,
          31.737576964959487
        ]
      },
      "properties": {
        "rank": 95,
        "distance_metric": "euclidean",
        "placement_mode": "cluster",
        "placement_semantics": "area_center",
        "shelter_id": 90,
        "candidate_source": "cluster_candidates",
        "time_bucket": "5min",
        "time_seconds": 300,
        "coordinates": "31.737577,34.977981",
        "nearest_building_dist_m": 42.87,
        "newly_covered_buildings": 9,
        "newly_covered_people_est": 63
      }
    },
    {
      "type": "Feature",
      "geometry": {
        "type": "Point",
        "coordinates": [
          34.9916041428687,
          31.74666304563565
        ]
      },
      "properties": {
        "rank": 96,
        "distance_metric": "euclidean",
        "placement_mode": "cluster",
        "placement_semantics": "area_center",
        "shelter_id": 91,
        "candidate_source": "cluster_candidates",
        "time_bucket": "5min",
        "time_seconds": 300,
        "coordinates": "31.746663,34.991604",
        "nearest_building_dist_m": 72.11,
        "newly_covered_buildings": 17,
        "newly_covered_people_est": 119
      }
    },
    {
      "type": "Feature",
      "geometry": {
        "type": "Point",
        "coordinates": [
          34.993711966140886,
          31.748541054440555
        ]
      },
      "properties": {
        "rank": 97,
        "distance_metric": "euclidean",
        "placement_mode": "cluster",
        "placement_semantics": "area_center",
        "shelter_id": 92,
        "candidate_source": "cluster_candidates",
        "time_bucket": "5min",
        "time_seconds": 300,
        "coordinates": "31.748541,34.993712",
        "nearest_building_dist_m": 41.78,
        "newly_covered_buildings": 26,
        "newly_covered_people_est": 182
      }
    },
    {
      "type": "Feature",
      "geometry": {
        "type": "Point",
        "coordinates": [
          34.98425934832752,
          31.748111710879424
        ]
      },
      "properties": {
        "rank": 98,
        "distance_metric": "euclidean",
        "placement_mode": "cluster",
        "placement_semantics": "area_center",
        "shelter_id": 103,
        "candidate_source": "cluster_candidates",
        "time_bucket": "5min",
        "time_seconds": 300,
        "coordinates": "31.748112,34.984259",
        "nearest_building_dist_m": 72.39,
        "newly_covered_buildings": 24,
        "newly_covered_people_est": 168
      }
    },
    {
      "type": "Feature",
      "geometry": {
        "type": "Point",
        "coordinates": [
          34.98304002079233,
          31.705467888603646
        ]
      },
      "properties": {
        "rank": 99,
        "distance_metric": "euclidean",
        "placement_mode": "cluster",
        "placement_semantics": "area_center",
        "shelter_id": 117,
        "candidate_source": "cluster_candidates",
        "time_bucket": "5min",
        "time_seconds": 300,
        "coordinates": "31.705468,34.983040",
        "nearest_building_dist_m": 41.55,
        "newly_covered_buildings": 10,
        "newly_covered_people_est": 70
      }
    },
    {
      "type": "Feature",
      "geometry": {
        "type": "Point",
        "coordinates": [
          34.99312674114111,
          31.71136465437686
        ]
      },
      "properties": {
        "rank": 100,
        "distance_metric": "euclidean",
        "placement_mode": "cluster",
        "placement_semantics": "area_center",
        "shelter_id": 124,
        "candidate_source": "cluster_candidates",
        "time_bucket": "5min",
        "time_seconds": 300,
        "coordinates": "31.711365,34.993127",
        "nearest_building_dist_m": 29.59,
        "newly_covered_buildings": 14,
        "newly_covered_people_est": 98
      }
    },
    {
      "type": "Feature",
      "geometry": {
        "type": "Point",
        "coordinates": [
          34.980362979289545,
          31.704182143718413
        ]
      },
      "properties": {
        "rank": 101,
        "distance_metric": "euclidean",
        "placement_mode": "cluster",
        "placement_semantics": "area_center",
        "shelter_id": 125,
        "candidate_source": "cluster_candidates",
        "time_bucket": "5min",
        "time_seconds": 300,
        "coordinates": "31.704182,34.980363",
        "nearest_building_dist_m": 91.57,
        "newly_covered_buildings": 15,
        "newly_covered_people_est": 105
      }
    },
    {
      "type": "Feature",
      "geometry": {
        "type": "Point",
        "coordinates": [
          34.99325756245577,
          31.71868647227166
        ]
      },
      "properties": {
        "rank": 102,
        "distance_metric": "euclidean",
        "placement_mode": "cluster",
        "placement_semantics": "area_center",
        "shelter_id": 127,
        "candidate_source": "cluster_candidates",
        "time_bucket": "5min",
        "time_seconds": 300,
        "coordinates": "31.718686,34.993258",
        "nearest_building_dist_m": 60.9,
        "newly_covered_buildings": 5,
        "newly_covered_people_est": 35
      }
    },
    {
      "type": "Feature",
      "geometry": {
        "type": "Point",
        "coordinates": [
          34.98699579921296,
          31.703739217847534
        ]
      },
      "properties": {
        "rank": 103,
        "distance_metric": "euclidean",
        "placement_mode": "cluster",
        "placement_semantics": "area_center",
        "shelter_id": 128,
        "candidate_source": "cluster_candidates",
        "time_bucket": "5min",
        "time_seconds": 300,
        "coordinates": "31.703739,34.986996",
        "nearest_building_dist_m": 89.37,
        "newly_covered_buildings": 9,
        "newly_covered_people_est": 63
      }
    },
    {
      "type": "Feature",
      "geometry": {
        "type": "Point",
        "coordinates": [
          34.992678629260155,
          31.73028893816698
        ]
      },
      "properties": {
        "rank": 104,
        "distance_metric": "euclidean",
        "placement_mode": "cluster",
        "placement_semantics": "area_center",
        "shelter_id": 133,
        "candidate_source": "cluster_candidates",
        "time_bucket": "5min",
        "time_seconds": 300,
        "coordinates": "31.730289,34.992679",
        "nearest_building_dist_m": 70.11,
        "newly_covered_buildings": 27,
        "newly_covered_people_est": 189
      }
    },
    {
      "type": "Feature",
      "geometry": {
        "type": "Point",
        "coordinates": [
          34.98477019234561,
          31.702780285807627
        ]
      },
      "properties": {
        "rank": 105,
        "distance_metric": "euclidean",
        "placement_mode": "cluster",
        "placement_semantics": "area_center",
        "shelter_id": 143,
        "candidate_source": "cluster_candidates",
        "time_bucket": "5min",
        "time_seconds": 300,
        "coordinates": "31.702780,34.984770",
        "nearest_building_dist_m": 82.78,
        "newly_covered_buildings": 10,
        "newly_covered_people_est": 70
      }
    },
    {
      "type": "Feature",
      "geometry": {
        "type": "Point",
        "coordinates": [
          34.99184972002259,
          31.70253669666213
        ]
      },
      "properties": {
        "rank": 106,
        "distance_metric": "euclidean",
        "placement_mode": "cluster",
        "placement_semantics": "area_center",
        "shelter_id": 147,
        "candidate_source": "cluster_candidates",
        "time_bucket": "5min",
        "time_seconds": 300,
        "coordinates": "31.702537,34.991850",
        "nearest_building_dist_m": 11.47,
        "newly_covered_buildings": 6,
        "newly_covered_people_est": 42
      }
    }
  ]
}