{
  "type": "FeatureCollection",
  "features": [
    {
      "type": "Feature",
      "geometry": {
        "type": "Point",
        "coordinates": [
          34.978199352973355,
          31.744385982086587
        ]
      },
      "properties": {
        "rank": 1,
        "distance_metric": "graph",
        "placement_mode": "cluster",
        "placement_semantics": "area_center",
        "shelter_id": 19,
        "candidate_source": "cluster_candidates",
        "time_bucket": "5min",
        "time_seconds": 300,
        "coordinates": "31.744386,34.978199",
        "nearest_building_dist_m": 28.43,
        "newly_covered_buildings": 19,
        "newly_covered_people_est": 133
      }
    },
    {
      "type": "Feature",
      "geometry": {
        "type": "Point",
        "coordinates": [
          34.98673599717575,
          31.748025531430223
        ]
      },
      "properties": {
        "rank": 2,
        "distance_metric": "graph",
        "placement_mode": "cluster",
        "placement_semantics": "area_center",
        "shelter_id": 4,
        "candidate_source": "cluster_candidates",
        "time_bucket": "5min",
        "time_seconds": 300,
        "coordinates": "31.748026,34.986736",
        "nearest_building_dist_m": 4.39,
        "newly_covered_buildings": 18,
        "newly_covered_people_est": 126
      }
    },
    {
      "type": "Feature",
      "geometry": {
        "type": "Point",
        "coordinates": [
          34.98729196776319,
          31.7540728751224
        ]
      },
      "properties": {
        "rank": 3,
        "distance_metric": "graph",
        "placement_mode": "cluster",
        "placement_semantics": "area_center",
        "shelter_id": 2,
        "candidate_source": "cluster_candidates",
        "time_bucket": "5min",
        "time_seconds": 300,
        "coordinates": "31.754073,34.987292",
        "nearest_building_dist_m": 10.03,
        "newly_covered_buildings": 9,
        "newly_covered_people_est": 63
      }
    },
    {
      "type": "Feature",
      "geometry": {
        "type": "Point",
        "coordinates": [
          34.97756500213182,
          31.74242666992214
        ]
      },
      "properties": {
        "rank": 4,
        "distance_metric": "graph",
        "placement_mode": "cluster",
        "placement_semantics": "area_center",
        "shelter_id": 36,
        "candidate_source": "cluster_candidates",
        "time_bucket": "5min",
        "time_seconds": 300,
        "coordinates": "31.742427,34.977565",
        "nearest_building_dist_m": 26.34,
        "newly_covered_buildings": 15,
        "newly_covered_people_est": 105
      }
    },
    {
      "type": "Feature",
      "geometry": {
        "type": "Point",
        "coordinates": [
          34.98693502625908,
          31.746453926829847
        ]
      },
      "properties": {
        "rank": 5,
        "distance_metric": "graph",
        "placement_mode": "cluster",
        "placement_semantics": "area_center",
        "shelter_id": 15,
        "candidate_source": "cluster_candidates",
        "time_bucket": "5min",
        "time_seconds": 300,
        "coordinates": "31.746454,34.986935",
        "nearest_building_dist_m": 23.06,
        "newly_covered_buildings": 19,
        "newly_covered_people_est": 133
      }
    },
    {
      "type": "Feature",
      "geometry": {
        "type": "Point",
        "coordinates": [
          34.99187399962588,
          31.740259153484573
        ]
      },
      "properties": {
        "rank": 6,
        "distance_metric": "graph",
        "placement_mode": "cluster",
        "placement_semantics": "area_center",
        "shelter_id": 29,
        "candidate_source": "cluster_candidates",
        "time_bucket": "5min",
        "time_seconds": 300,
        "coordinates": "31.740259,34.991874",
        "nearest_building_dist_m": 28.93,
        "newly_covered_buildings": 13,
        "newly_covered_people_est": 91
      }
    },
    {
      "type": "Feature",
      "geometry": {
        "type": "Point",
        "coordinates": [
          34.98072758212739,
          31.750245095767085
        ]
      },
      "properties": {
        "rank": 7,
        "distance_metric": "graph",
        "placement_mode": "cluster",
        "placement_semantics": "area_center",
        "shelter_id": 31,
        "candidate_source": "cluster_candidates",
        "time_bucket": "5min",
        "time_seconds": 300,
        "coordinates": "31.750245,34.980728",
        "nearest_building_dist_m": 25.31,
        "newly_covered_buildings": 17,
        "newly_covered_people_est": 119
      }
    },
    {
      "type": "Feature",
      "geometry": {
        "type": "Point",
        "coordinates": [
          34.978529464866504,
          31.73851080562906
        ]
      },
      "properties": {
        "rank": 8,
        "distance_metric": "graph",
        "placement_mode": "cluster",
        "placement_semantics": "area_center",
        "shelter_id": 34,
        "candidate_source": "cluster_candidates",
        "time_bucket": "5min",
        "time_seconds": 300,
        "coordinates": "31.738511,34.978529",
        "nearest_building_dist_m": 33.47,
        "newly_covered_buildings": 21,
        "newly_covered_people_est": 147
      }
    },
    {
      "type": "Feature",
      "geometry": {
        "type": "Point",
        "coordinates": [
          34.983928040602514,
          31.738245601306094
        ]
      },
      "properties": {
        "rank": 9,
        "distance_metric": "graph",
        "placement_mode": "cluster",
        "placement_semantics": "area_center",
        "shelter_id": 72,
        "candidate_source": "cluster_candidates",
        "time_bucket": "5min",
        "time_seconds": 300,
        "coordinates": "31.738246,34.983928",
        "nearest_building_dist_m": 46.84,
        "newly_covered_buildings": 19,
        "newly_covered_people_est": 133
      }
    },
    {
      "type": "Feature",
      "geometry": {
        "type": "Point",
        "coordinates": [
          34.98833061348083,
          31.74211070388978
        ]
      },
      "properties": {
        "rank": 10,
        "distance_metric": "graph",
        "placement_mode": "cluster",
        "placement_semantics": "area_center",
        "shelter_id": 7,
        "candidate_source": "cluster_candidates",
        "time_bucket": "5min",
        "time_seconds": 300,
        "coordinates": "31.742111,34.988331",
        "nearest_building_dist_m": 14.07,
        "newly_covered_buildings": 15,
        "newly_covered_people_est": 105
      }
    },
    {
      "type": "Feature",
      "geometry": {
        "type": "Point",
        "coordinates": [
          34.98545161766595,
          31.747820756562042
        ]
      },
      "properties": {
        "rank": 11,
        "distance_metric": "graph",
        "placement_mode": "cluster",
        "placement_semantics": "area_center",
        "shelter_id": 11,
        "candidate_source": "cluster_candidates",
        "time_bucket": "5min",
        "time_seconds": 300,
        "coordinates": "31.747821,34.985452",
        "nearest_building_dist_m": 10.78,
        "newly_covered_buildings": 18,
        "newly_covered_people_est": 126
      }
    },
    {
      "type": "Feature",
      "geometry": {
        "type": "Point",
        "coordinates": [
          34.97979570700999,
          31.743640661403905
        ]
      },
      "properties": {
        "rank": 12,
        "distance_metric": "graph",
        "placement_mode": "cluster",
        "placement_semantics": "area_center",
        "shelter_id": 50,
        "candidate_source": "cluster_candidates",
        "time_bucket": "5min",
        "time_seconds": 300,
        "coordinates": "31.743641,34.979796",
        "nearest_building_dist_m": 30.72,
        "newly_covered_buildings": 19,
        "newly_covered_people_est": 133
      }
    },
    {
      "type": "Feature",
      "geometry": {
        "type": "Point",
        "coordinates": [
          34.99123164411941,
          31.741958868672068
        ]
      },
      "properties": {
        "rank": 13,
        "distance_metric": "graph",
        "placement_mode": "cluster",
        "placement_semantics": "area_center",
        "shelter_id": 51,
        "candidate_source": "cluster_candidates",
        "time_bucket": "5min",
        "time_seconds": 300,
        "coordinates": "31.741959,34.991232",
        "nearest_building_dist_m": 18.08,
        "newly_covered_buildings": 14,
        "newly_covered_people_est": 98
      }
    },
    {
      "type": "Feature",
      "geometry": {
        "type": "Point",
        "coordinates": [
          34.979512186006694,
          31.741457720843535
        ]
      },
      "properties": {
        "rank": 14,
        "distance_metric": "graph",
        "placement_mode": "cluster",
        "placement_semantics": "area_center",
        "shelter_id": 67,
        "candidate_source": "cluster_candidates",
        "time_bucket": "5min",
        "time_seconds": 300,
        "coordinates": "31.741458,34.979512",
        "nearest_building_dist_m": 55.52,
        "newly_covered_buildings": 13,
        "newly_covered_people_est": 91
      }
    },
    {
      "type": "Feature",
      "geometry": {
        "type": "Point",
        "coordinates": [
          34.995633156798036,
          31.75251432294318
        ]
      },
      "properties": {
        "rank": 15,
        "distance_metric": "graph",
        "placement_mode": "cluster",
        "placement_semantics": "area_center",
        "shelter_id": 3,
        "candidate_source": "cluster_candidates",
        "time_bucket": "5min",
        "time_seconds": 300,
        "coordinates": "31.752514,34.995633",
        "nearest_building_dist_m": 4.4,
        "newly_covered_buildings": 12,
        "newly_covered_people_est": 84
      }
    },
    {
      "type": "Feature",
      "geometry": {
        "type": "Point",
        "coordinates": [
          34.98358281644052,
          31.743116473440626
        ]
      },
      "properties": {
        "rank": 16,
        "distance_metric": "graph",
        "placement_mode": "cluster",
        "placement_semantics": "area_center",
        "shelter_id": 18,
        "candidate_source": "cluster_candidates",
        "time_bucket": "5min",
        "time_seconds": 300,
        "coordinates": "31.743116,34.983583",
        "nearest_building_dist_m": 9.6,
        "newly_covered_buildings": 18,
        "newly_covered_people_est": 126
      }
    },
    {
      "type": "Feature",
      "geometry": {
        "type": "Point",
        "coordinates": [
          34.9970180584749,
          31.74686527865875
        ]
      },
      "properties": {
        "rank": 17,
        "distance_metric": "graph",
        "placement_mode": "cluster",
        "placement_semantics": "area_center",
        "shelter_id": 46,
        "candidate_source": "cluster_candidates",
        "time_bucket": "5min",
        "time_seconds": 300,
        "coordinates": "31.746865,34.997018",
        "nearest_building_dist_m": 24.54,
        "newly_covered_buildings": 7,
        "newly_covered_people_est": 49
      }
    },
    {
      "type": "Feature",
      "geometry": {
        "type": "Point",
        "coordinates": [
          34.99532733864529,
          31.73690015602175
        ]
      },
      "properties": {
        "rank": 18,
        "distance_metric": "graph",
        "placement_mode": "cluster",
        "placement_semantics": "area_center",
        "shelter_id": 63,
        "candidate_source": "cluster_candidates",
        "time_bucket": "5min",
        "time_seconds": 300,
        "coordinates": "31.736900,34.995327",
        "nearest_building_dist_m": 15.99,
        "newly_covered_buildings": 7,
        "newly_covered_people_est": 49
      }
    },
    {
      "type": "Feature",
      "geometry": {
        "type": "Point",
        "coordinates": [
          34.979648047800346,
          31.747813907951432
        ]
      },
      "properties": {
        "rank": 19,
        "distance_metric": "graph",
        "placement_mode": "cluster",
        "placement_semantics": "area_center",
        "shelter_id": 1,
        "candidate_source": "cluster_candidates",
        "time_bucket": "5min",
        "time_seconds": 300,
        "coordinates": "31.747814,34.979648",
        "nearest_building_dist_m": 11.74,
        "newly_covered_buildings": 15,
        "newly_covered_people_est": 105
      }
    },
    {
      "type": "Feature",
      "geometry": {
        "type": "Point",
        "coordinates": [
          34.975084355948404,
          31.743760813506896
        ]
      },
      "properties": {
        "rank": 20,
        "distance_metric": "graph",
        "placement_mode": "cluster",
        "placement_semantics": "area_center",
        "shelter_id": 37,
        "candidate_source": "cluster_candidates",
        "time_bucket": "5min",
        "time_seconds": 300,
        "coordinates": "31.743761,34.975084",
        "nearest_building_dist_m": 18.42,
        "newly_covered_buildings": 16,
        "newly_covered_people_est": 112
      }
    },
    {
      "type": "Feature",
      "geometry": {
        "type": "Point",
        "coordinates": [
          34.989971983854865,
          31.754006056049512
        ]
      },
      "properties": {
        "rank": 21,
        "distance_metric": "graph",
        "placement_mode": "cluster",
        "placement_semantics": "area_center",
        "shelter_id": 42,
        "candidate_source": "cluster_candidates",
        "time_bucket": "5min",
        "time_seconds": 300,
        "coordinates": "31.754006,34.989972",
        "nearest_building_dist_m": 12.49,
        "newly_covered_buildings": 14,
        "newly_covered_people_est": 98
      }
    },
    {
      "type": "Feature",
      "geometry": {
        "type": "Point",
        "coordinates": [
          34.98665862811054,
          31.7506920672937
        ]
      },
      "properties": {
        "rank": 22,
        "distance_metric": "graph",
        "placement_mode": "cluster",
        "placement_semantics": "area_center",
        "shelter_id": 52,
        "candidate_source": "cluster_candidates",
        "time_bucket": "5min",
        "time_seconds": 300,
        "coordinates": "31.750692,34.986659",
        "nearest_building_dist_m": 8.54,
        "newly_covered_buildings": 19,
        "newly_covered_people_est": 133
      }
    },
    {
      "type": "Feature",
      "geometry": {
        "type": "Point",
        "coordinates": [
          34.988247904622845,
          31.74618635161873
        ]
      },
      "properties": {
        "rank": 23,
        "distance_metric": "graph",
        "placement_mode": "cluster",
        "placement_semantics": "area_center",
        "shelter_id": 65,
        "candidate_source": "cluster_candidates",
        "time_bucket": "5min",
        "time_seconds": 300,
        "coordinates": "31.746186,34.988248",
        "nearest_building_dist_m": 17.54,
        "newly_covered_buildings": 31,
        "newly_covered_people_est": 217
      }
    },
    {
      "type": "Feature",
      "geometry": {
        "type": "Point",
        "coordinates": [
          34.985153852194095,
          31.73852837533662
        ]
      },
      "properties": {
        "rank": 24,
        "distance_metric": "graph",
        "placement_mode": "cluster",
        "placement_semantics": "area_center",
        "shelter_id": 5,
        "candidate_source": "cluster_candidates",
        "time_bucket": "5min",
        "time_seconds": 300,
        "coordinates": "31.738528,34.985154",
        "nearest_building_dist_m": 7.74,
        "newly_covered_buildings": 9,
        "newly_covered_people_est": 63
      }
    },
    {
      "type": "Feature",
      "geometry": {
        "type": "Point",
        "coordinates": [
          34.9941652140344,
          31.751310786629166
        ]
      },
      "properties": {
        "rank": 25,
        "distance_metric": "graph",
        "placement_mode": "cluster",
        "placement_semantics": "area_center",
        "shelter_id": 6,
        "candidate_source": "cluster_candidates",
        "time_bucket": "5min",
        "time_seconds": 300,
        "coordinates": "31.751311,34.994165",
        "nearest_building_dist_m": 16.88,
        "newly_covered_buildings": 19,
        "newly_covered_people_est": 133
      }
    },
    {
      "type": "Feature",
      "geometry": {
        "type": "Point",
        "coordinates": [
          34.9936810989619,
          31.746463673334144
        ]
      },
      "properties": {
        "rank": 26,
        "distance_metric": "graph",
        "placement_mode": "cluster",
        "placement_semantics": "area_center",
        "shelter_id": 8,
        "candidate_source": "cluster_candidates",
        "time_bucket": "5min",
        "time_seconds": 300,
        "coordinates": "31.746464,34.993681",
        "nearest_building_dist_m": 32.54,
        "newly_covered_buildings": 7,
        "newly_covered_people_est": 49
      }
    },
    {
      "type": "Feature",
      "geometry": {
        "type": "Point",
        "coordinates": [
          34.988543982184424,
          31.74734132857725
        ]
      },
      "properties": {
        "rank": 27,
        "distance_metric": "graph",
        "placement_mode": "cluster",
        "placement_semantics": "area_center",
        "shelter_id": 21,
        "candidate_source": "cluster_candidates",
        "time_bucket": "5min",
        "time_seconds": 300,
        "coordinates": "31.747341,34.988544",
        "nearest_building_dist_m": 2.62,
        "newly_covered_buildings": 22,
        "newly_covered_people_est": 154
      }
    },
    {
      "type": "Feature",
      "geometry": {
        "type": "Point",
        "coordinates": [
          34.986685798206594,
          31.742295225833747
        ]
      },
      "properties": {
        "rank": 28,
        "distance_metric": "graph",
        "placement_mode": "cluster",
        "placement_semantics": "area_center",
        "shelter_id": 28,
        "candidate_source": "cluster_candidates",
        "time_bucket": "5min",
        "time_seconds": 300,
        "coordinates": "31.742295,34.986686",
        "nearest_building_dist_m": 30.01,
        "newly_covered_buildings": 9,
        "newly_covered_people_est": 63
      }
    },
    {
      "type": "Feature",
      "geometry": {
        "type": "Point",
        "coordinates": [
          34.98345566161645,
          31.74765240318073
        ]
      },
      "properties": {
        "rank": 29,
        "distance_metric": "graph",
        "placement_mode": "cluster",
        "placement_semantics": "area_center",
        "shelter_id": 30,
        "candidate_source": "cluster_candidates",
        "time_bucket": "5min",
        "time_seconds": 300,
        "coordinates": "31.747652,34.983456",
        "nearest_building_dist_m": 13.1,
        "newly_covered_buildings": 14,
        "newly_covered_people_est": 98
      }
    },
    {
      "type": "Feature",
      "geometry": {
        "type": "Point",
        "coordinates": [
          34.98204774105927,
          31.752431170222483
        ]
      },
      "properties": {
        "rank": 30,
        "distance_metric": "graph",
        "placement_mode": "cluster",
        "placement_semantics": "area_center",
        "shelter_id": 32,
        "candidate_source": "cluster_candidates",
        "time_bucket": "5min",
        "time_seconds": 300,
        "coordinates": "31.752431,34.982048",
        "nearest_building_dist_m": 20.37,
        "newly_covered_buildings": 21,
        "newly_covered_people_est": 147
      }
    },
    {
      "type": "Feature",
      "geometry": {
        "type": "Point",
        "coordinates": [
          34.98221511194555,
          31.749931755459983
        ]
      },
      "properties": {
        "rank": 31,
        "distance_metric": "graph",
        "placement_mode": "cluster",
        "placement_semantics": "area_center",
        "shelter_id": 39,
        "candidate_source": "cluster_candidates",
        "time_bucket": "5min",
        "time_seconds": 300,
        "coordinates": "31.749932,34.982215",
        "nearest_building_dist_m": 49.74,
        "newly_covered_buildings": 15,
        "newly_covered_people_est": 105
      }
    },
    {
      "type": "Feature",
      "geometry": {
        "type": "Point",
        "coordinates": [
          34.981863588111466,
          31.74319481554165
        ]
      },
      "properties": {
        "rank": 32,
        "distance_metric": "graph",
        "placement_mode": "cluster",
        "placement_semantics": "area_center",
        "shelter_id": 44,
        "candidate_source": "cluster_candidates",
        "time_bucket": "5min",
        "time_seconds": 300,
        "coordinates": "31.743195,34.981864",
        "nearest_building_dist_m": 30.43,
        "newly_covered_buildings": 16,
        "newly_covered_people_est": 112
      }
    },
    {
      "type": "Feature",
      "geometry": {
        "type": "Point",
        "coordinates": [
          34.979093837460596,
          31.740005449637486
        ]
      },
      "properties": {
        "rank": 33,
        "distance_metric": "graph",
        "placement_mode": "cluster",
        "placement_semantics": "area_center",
        "shelter_id": 47,
        "candidate_source": "cluster_candidates",
        "time_bucket": "5min",
        "time_seconds": 300,
        "coordinates": "31.740005,34.979094",
        "nearest_building_dist_m": 21.89,
        "newly_covered_buildings": 12,
        "newly_covered_people_est": 84
      }
    },
    {
      "type": "Feature",
      "geometry": {
        "type": "Point",
        "coordinates": [
          34.97988113825314,
          31.739061269421224
        ]
      },
      "properties": {
        "rank": 34,
        "distance_metric": "graph",
        "placement_mode": "cluster",
        "placement_semantics": "area_center",
        "shelter_id": 54,
        "candidate_source": "cluster_candidates",
        "time_bucket": "5min",
        "time_seconds": 300,
        "coordinates": "31.739061,34.979881",
        "nearest_building_dist_m": 21.59,
        "newly_covered_buildings": 23,
        "newly_covered_people_est": 161
      }
    },
    {
      "type": "Feature",
      "geometry": {
        "type": "Point",
        "coordinates": [
          34.99034841819673,
          31.74087007107785
        ]
      },
      "properties": {
        "rank": 35,
        "distance_metric": "graph",
        "placement_mode": "cluster",
        "placement_semantics": "area_center",
        "shelter_id": 70,
        "candidate_source": "cluster_candidates",
        "time_bucket": "5min",
        "time_seconds": 300,
        "coordinates": "31.740870,34.990348",
        "nearest_building_dist_m": 27.16,
        "newly_covered_buildings": 17,
        "newly_covered_people_est": 119
      }
    },
    {
      "type": "Feature",
      "geometry": {
        "type": "Point",
        "coordinates": [
          34.99550848032409,
          31.75116635648037
        ]
      },
      "properties": {
        "rank": 36,
        "distance_metric": "graph",
        "placement_mode": "cluster",
        "placement_semantics": "area_center",
        "shelter_id": 75,
        "candidate_source": "cluster_candidates",
        "time_bucket": "5min",
        "time_seconds": 300,
        "coordinates": "31.751166,34.995508",
        "nearest_building_dist_m": 71.68,
        "newly_covered_buildings": 40,
        "newly_covered_people_est": 280
      }
    },
    {
      "type": "Feature",
      "geometry": {
        "type": "Point",
        "coordinates": [
          34.99537272430369,
          31.746953372670646
        ]
      },
      "properties": {
        "rank": 37,
        "distance_metric": "graph",
        "placement_mode": "cluster",
        "placement_semantics": "area_center",
        "shelter_id": 83,
        "candidate_source": "cluster_candidates",
        "time_bucket": "5min",
        "time_seconds": 300,
        "coordinates": "31.746953,34.995373",
        "nearest_building_dist_m": 40.9,
        "newly_covered_buildings": 18,
        "newly_covered_people_est": 126
      }
    },
    {
      "type": "Feature",
      "geometry": {
        "type": "Point",
        "coordinates": [
          34.98938478964482,
          31.74555263754745
        ]
      },
      "properties": {
        "rank": 38,
        "distance_metric": "graph",
        "placement_mode": "cluster",
        "placement_semantics": "area_center",
        "shelter_id": 0,
        "candidate_source": "cluster_candidates",
        "time_bucket": "5min",
        "time_seconds": 300,
        "coordinates": "31.745553,34.989385",
        "nearest_building_dist_m": 14.6,
        "newly_covered_buildings": 11,
        "newly_covered_people_est": 77
      }
    },
    {
      "type": "Feature",
      "geometry": {
        "type": "Point",
        "coordinates": [
          34.99300820807969,
          31.738626956514878
        ]
      },
      "properties": {
        "rank": 39,
        "distance_metric": "graph",
        "placement_mode": "cluster",
        "placement_semantics": "area_center",
        "shelter_id": 24,
        "candidate_source": "cluster_candidates",
        "time_bucket": "5min",
        "time_seconds": 300,
        "coordinates": "31.738627,34.993008",
        "nearest_building_dist_m": 20.23,
        "newly_covered_buildings": 13,
        "newly_covered_people_est": 91
      }
    },
    {
      "type": "Feature",
      "geometry": {
        "type": "Point",
        "coordinates": [
          34.98837924338736,
          31.75335708872482
        ]
      },
      "properties": {
        "rank": 40,
        "distance_metric": "graph",
        "placement_mode": "cluster",
        "placement_semantics": "area_center",
        "shelter_id": 25,
        "candidate_source": "cluster_candidates",
        "time_bucket": "5min",
        "time_seconds": 300,
        "coordinates": "31.753357,34.988379",
        "nearest_building_dist_m": 10.68,
        "newly_covered_buildings": 17,
        "newly_covered_people_est": 119
      }
    },
    {
      "type": "Feature",
      "geometry": {
        "type": "Point",
        "coordinates": [
          34.982957411356935,
          31.741275928604185
        ]
      },
      "properties": {
        "rank": 41,
        "distance_metric": "graph",
        "placement_mode": "cluster",
        "placement_semantics": "area_center",
        "shelter_id": 41,
        "candidate_source": "cluster_candidates",
        "time_bucket": "5min",
        "time_seconds": 300,
        "coordinates": "31.741276,34.982957",
        "nearest_building_dist_m": 32.95,
        "newly_covered_buildings": 8,
        "newly_covered_people_est": 56
      }
    },
    {
      "type": "Feature",
      "geometry": {
        "type": "Point",
        "coordinates": [
          34.98208799837183,
          31.738348628134123
        ]
      },
      "properties": {
        "rank": 42,
        "distance_metric": "graph",
        "placement_mode": "cluster",
        "placement_semantics": "area_center",
        "shelter_id": 43,
        "candidate_source": "cluster_candidates",
        "time_bucket": "5min",
        "time_seconds": 300,
        "coordinates": "31.738349,34.982088",
        "nearest_building_dist_m": 27.73,
        "newly_covered_buildings": 12,
        "newly_covered_people_est": 84
      }
    },
    {
      "type": "Feature",
      "geometry": {
        "type": "Point",
        "coordinates": [
          34.98138832769117,
          31.740330567016038
        ]
      },
      "properties": {
        "rank": 43,
        "distance_metric": "graph",
        "placement_mode": "cluster",
        "placement_semantics": "area_center",
        "shelter_id": 53,
        "candidate_source": "cluster_candidates",
        "time_bucket": "5min",
        "time_seconds": 300,
        "coordinates": "31.740331,34.981388",
        "nearest_building_dist_m": 39.23,
        "newly_covered_buildings": 12,
        "newly_covered_people_est": 84
      }
    },
    {
      "type": "Feature",
      "geometry": {
        "type": "Point",
        "coordinates": [
          34.98082931304613,
          31.738042318084524
        ]
      },
      "properties": {
        "rank": 44,
        "distance_metric": "graph",
        "placement_mode": "cluster",
        "placement_semantics": "area_center",
        "shelter_id": 56,
        "candidate_source": "cluster_candidates",
        "time_bucket": "5min",
        "time_seconds": 300,
        "coordinates": "31.738042,34.980829",
        "nearest_building_dist_m": 17.25,
        "newly_covered_buildings": 15,
        "newly_covered_people_est": 105
      }
    },
    {
      "type": "Feature",
      "geometry": {
        "type": "Point",
        "coordinates": [
          34.99228114151798,
          31.716612966980655
        ]
      },
      "properties": {
        "rank": 45,
        "distance_metric": "graph",
        "placement_mode": "cluster",
        "placement_semantics": "area_center",
        "shelter_id": 58,
        "candidate_source": "cluster_candidates",
        "time_bucket": "5min",
        "time_seconds": 300,
        "coordinates": "31.716613,34.992281",
        "nearest_building_dist_m": 46.84,
        "newly_covered_buildings": 5,
        "newly_covered_people_est": 35
      }
    },
    {
      "type": "Feature",
      "geometry": {
        "type": "Point",
        "coordinates": [
          34.98715591039335,
          31.739305618028673
        ]
      },
      "properties": {
        "rank": 46,
        "distance_metric": "graph",
        "placement_mode": "cluster",
        "placement_semantics": "area_center",
        "shelter_id": 62,
        "candidate_source": "cluster_candidates",
        "time_bucket": "5min",
        "time_seconds": 300,
        "coordinates": "31.739306,34.987156",
        "nearest_building_dist_m": 17.04,
        "newly_covered_buildings": 5,
        "newly_covered_people_est": 35
      }
    },
    {
      "type": "Feature",
      "geometry": {
        "type": "Point",
        "coordinates": [
          34.9783846158453,
          31.73730496590387
        ]
      },
      "properties": {
        "rank": 47,
        "distance_metric": "graph",
        "placement_mode": "cluster",
        "placement_semantics": "area_center",
        "shelter_id": 69,
        "candidate_source": "cluster_candidates",
        "time_bucket": "5min",
        "time_seconds": 300,
        "coordinates": "31.737305,34.978385",
        "nearest_building_dist_m": 61.99,
        "newly_covered_buildings": 26,
        "newly_covered_people_est": 182
      }
    },
    {
      "type": "Feature",
      "geometry": {
        "type": "Point",
        "coordinates": [
          34.98421977374553,
          31.741370270762943
        ]
      },
      "properties": {
        "rank": 48,
        "distance_metric": "graph",
        "placement_mode": "cluster",
        "placement_semantics": "area_center",
        "shelter_id": 100,
        "candidate_source": "cluster_candidates",
        "time_bucket": "5min",
        "time_seconds": 300,
        "coordinates": "31.741370,34.984220",
        "nearest_building_dist_m": 69.9,
        "newly_covered_buildings": 77,
        "newly_covered_people_est": 539
      }
    }
  ]
}